{"type":"FeatureCollection","features":[{"type":"Feature","properties":{"STATE_NAME":"New South Wales"},"geometry":{"type":"MultiPolygon","coordinates":[[[[151.146,-33.824],[151.144,-33.829],[151.169,-33.839],[151.18,-33.836],[151.174,-33.843],[151.136,-33.836],[151.134,-33.845],[151.093,-33.82],[151.051,-33.824],[151.084,-33.822],[151.075,-33.833],[151.081,-33.846],[151.094,-33.824],[151.119,-33.865],[151.154,-33.842],[151.151,-33.872],[151.185,-33.846],[151.174,-33.871],[151.189,-33.876],[151.208,-33.854],[151.267,-33.871],[151.281,-33.833],[151.266,-33.968],[151.249,-34.002],[151.168,-33.95],[151.14,-34.003],[151.118,-33.99],[151.11,-34.023],[151.138,-34.037],[151.162,-34.0],[151.16,-34.023],[151.222,-34.001],[151.23,-34.026],[151.166,-34.041],[151.153,-34.073],[151.112,-34.072],[151.105,-34.042],[151.061,-34.064],[151.102,-34.065],[151.079,-34.089],[151.172,-34.087],[150.928,-34.317],[150.91,-34.465],[150.884,-34.458],[150.922,-34.494],[150.875,-34.538],[150.887,-34.492],[150.832,-34.486],[150.797,-34.546],[150.862,-34.537],[150.904,-34.597],[150.856,-34.615],[150.825,-34.783],[150.782,-34.791],[150.75,-34.855],[150.785,-34.987],[150.85,-35.013],[150.834,-35.074],[150.776,-35.083],[150.778,-35.002],[150.751,-34.991],[150.671,-35.037],[150.702,-35.123],[150.587,-35.088],[150.549,-35.103],[150.599,-35.127],[150.597,-35.19],[150.478,-35.292],[150.492,-35.366],[150.393,-35.465],[150.406,-35.534],[150.299,-35.647],[150.277,-35.724],[150.177,-35.703],[150.237,-35.802],[150.235,-35.836],[150.187,-35.833],[150.15,-35.891],[150.165,-36.013],[150.124,-36.142],[150.149,-36.267],[150.067,-36.399],[150.068,-36.554],[149.941,-36.812],[149.938,-36.902],[149.905,-36.915],[149.946,-36.949],[149.945,-37.054],[149.873,-37.083],[150.005,-37.141],[150.011,-37.212],[150.052,-37.262],[149.987,-37.24],[149.944,-37.278],[149.97,-37.31],[149.95,-37.375],[149.977,-37.505],[148.195,-36.796],[148.109,-36.801],[148.218,-36.598],[148.133,-36.567],[148.125,-36.465],[148.038,-36.39],[148.059,-36.32],[148.035,-36.311],[148.038,-36.141],[148.002,-36.14],[147.98,-36.086],[148.0,-36.046],[147.934,-36.048],[147.912,-35.995],[147.708,-35.929],[147.601,-35.979],[147.549,-35.965],[147.584,-35.985],[147.552,-36.004],[147.494,-35.944],[147.405,-35.943],[147.32,-36.061],[147.144,-36.038],[147.123,-35.994],[147.053,-36.108],[146.957,-36.078],[146.944,-36.116],[146.873,-36.074],[146.75,-36.061],[146.732,-36.024],[146.686,-36.041],[146.613,-35.973],[146.55,-35.992],[146.503,-35.958],[146.5,-35.991],[146.422,-35.966],[146.369,-36.051],[146.339,-36.026],[146.283,-36.041],[146.283,-36.011],[146.186,-36.042],[146.135,-36.003],[145.972,-36.016],[145.954,-35.962],[145.903,-35.952],[145.812,-35.992],[145.674,-35.926],[145.535,-35.802],[145.355,-35.867],[145.114,-35.821],[144.968,-35.866],[144.957,-35.961],[144.924,-35.989],[144.982,-36.072],[144.863,-36.059],[144.777,-36.13],[144.684,-36.095],[144.689,-36.061],[144.655,-36.075],[144.633,-36.048],[144.618,-36.077],[144.615,-36.032],[144.583,-36.038],[144.408,-35.904],[144.411,-35.859],[144.381,-35.852],[144.349,-35.767],[144.264,-35.751],[144.105,-35.591],[143.99,-35.555],[143.97,-35.5],[143.859,-35.48],[143.751,-35.388],[143.62,-35.388],[143.562,-35.337],[143.591,-35.282],[143.571,-35.207],[143.471,-35.219],[143.449,-35.189],[143.395,-35.192],[143.322,-35.037],[143.348,-34.792],[143.277,-34.792],[143.252,-34.773],[143.274,-34.753],[143.224,-34.759],[143.219,-34.729],[143.107,-34.701],[143.113,-34.681],[143.039,-34.703],[142.989,-34.663],[142.973,-34.695],[142.924,-34.648],[142.887,-34.68],[142.868,-34.627],[142.788,-34.59],[142.791,-34.546],[142.784,-34.58],[142.748,-34.577],[142.759,-34.6],[142.7,-34.599],[142.711,-34.676],[142.679,-34.681],[142.699,-34.724],[142.618,-34.729],[142.639,-34.78],[142.524,-34.759],[142.5,-34.739],[142.514,-34.691],[142.472,-34.667],[142.484,-34.636],[142.452,-34.633],[142.468,-34.564],[142.452,-34.584],[142.368,-34.53],[142.401,-34.523],[142.375,-34.515],[142.395,-34.493],[142.36,-34.499],[142.384,-34.478],[142.353,-34.47],[142.351,-34.397],[142.397,-34.338],[142.236,-34.307],[142.221,-34.182],[142.167,-34.183],[142.148,-34.149],[142.083,-34.174],[142.076,-34.131],[142.028,-34.123],[142.038,-34.099],[141.934,-34.138],[141.904,-34.111],[141.877,-34.137],[141.677,-34.101],[141.619,-34.156],[141.584,-34.152],[141.603,-34.191],[141.51,-34.216],[141.497,-34.156],[141.445,-34.168],[141.359,-34.111],[141.325,-34.139],[141.242,-34.061],[141.185,-34.092],[141.153,-34.055],[141.094,-34.051],[141.089,-34.077],[141.002,-34.039],[140.999,-28.999],[148.958,-28.999],[149.033,-28.956],[149.081,-28.842],[149.297,-28.71],[149.387,-28.696],[149.453,-28.595],[149.503,-28.574],[149.588,-28.573],[149.703,-28.634],[149.721,-28.609],[149.977,-28.613],[150.016,-28.581],[150.152,-28.55],[150.212,-28.574],[150.29,-28.537],[150.446,-28.665],[150.633,-28.677],[150.752,-28.633],[151.011,-28.741],[151.045,-28.844],[151.103,-28.836],[151.275,-28.939],[151.28,-29.101],[151.315,-29.166],[151.394,-29.178],[151.502,-29.071],[151.498,-29.02],[151.546,-28.953],[151.707,-28.872],[151.734,-28.872],[151.778,-28.96],[151.832,-28.96],[151.849,-28.908],[151.916,-28.929],[152.01,-28.908],[152.038,-28.865],[152.015,-28.851],[152.043,-28.732],[152.076,-28.708],[152.01,-28.665],[151.956,-28.519],[152.017,-28.525],[152.161,-28.433],[152.217,-28.449],[152.31,-28.363],[152.386,-28.369],[152.464,-28.259],[152.534,-28.263],[152.526,-28.306],[152.579,-28.339],[152.615,-28.27],[152.638,-28.311],[152.751,-28.364],[152.88,-28.31],[153.109,-28.358],[153.178,-28.248],[153.361,-28.248],[153.477,-28.157],[153.556,-28.168],[153.509,-28.19],[153.495,-28.22],[153.538,-28.184],[153.555,-28.236],[153.556,-28.17],[153.586,-28.258],[153.553,-28.531],[153.591,-28.625],[153.639,-28.636],[153.596,-28.775],[153.609,-28.843],[153.592,-28.876],[153.575,-28.84],[153.577,-28.87],[153.527,-28.873],[153.59,-28.878],[153.464,-29.019],[153.433,-29.101],[153.457,-29.14],[153.344,-29.297],[153.344,-29.344],[153.377,-29.366],[153.334,-29.675],[153.292,-29.754],[153.26,-29.952],[153.197,-30.041],[153.207,-30.156],[153.14,-30.256],[153.155,-30.305],[153.032,-30.499],[152.988,-30.732],[153.014,-30.861],[153.075,-30.878],[153.089,-30.911],[153.039,-31.003],[153.065,-31.057],[152.977,-31.171],[152.976,-31.314],[152.915,-31.409],[152.938,-31.476],[152.845,-31.573],[152.85,-31.641],[152.736,-31.811],[152.755,-31.845],[152.609,-31.947],[152.513,-32.117],[152.509,-32.172],[152.571,-32.216],[152.524,-32.294],[152.552,-32.335],[152.516,-32.409],[152.54,-32.443],[152.336,-32.527],[152.196,-32.648],[152.205,-32.701],[152.129,-32.686],[152.122,-32.658],[152.069,-32.69],[152.061,-32.65],[152.043,-32.68],[151.968,-32.654],[151.945,-32.677],[151.978,-32.706],[151.936,-32.737],[152.07,-32.736],[152.064,-32.698],[152.091,-32.728],[152.188,-32.712],[152.187,-32.741],[152.116,-32.793],[151.885,-32.838],[151.787,-32.92],[151.794,-32.883],[151.775,-32.902],[151.775,-32.89],[151.734,-32.878],[151.764,-32.924],[151.786,-32.926],[151.804,-32.916],[151.661,-33.084],[151.628,-33.015],[151.644,-32.975],[151.608,-32.966],[151.617,-33.006],[151.589,-32.989],[151.584,-32.996],[151.62,-33.048],[151.577,-33.033],[151.614,-33.082],[151.549,-33.063],[151.51,-33.103],[151.548,-33.089],[151.569,-33.114],[151.51,-33.138],[151.568,-33.175],[151.553,-33.146],[151.581,-33.103],[151.597,-33.162],[151.636,-33.069],[151.641,-33.096],[151.666,-33.087],[151.639,-33.176],[151.567,-33.244],[151.579,-33.282],[151.503,-33.344],[151.546,-33.278],[151.52,-33.263],[151.562,-33.237],[151.509,-33.223],[151.519,-33.262],[151.442,-33.307],[151.469,-33.328],[151.442,-33.33],[151.449,-33.355],[151.494,-33.337],[151.504,-33.363],[151.417,-33.523],[151.345,-33.547],[151.336,-33.522],[151.363,-33.521],[151.348,-33.506],[151.259,-33.571],[151.237,-33.511],[151.266,-33.485],[151.231,-33.507],[151.227,-33.53],[151.198,-33.495],[151.238,-33.476],[151.237,-33.454],[151.192,-33.489],[151.199,-33.536],[151.182,-33.501],[151.16,-33.511],[151.166,-33.427],[151.097,-33.48],[151.079,-33.445],[151.073,-33.449],[151.069,-33.457],[151.08,-33.449],[151.086,-33.476],[151.103,-33.484],[151.156,-33.467],[151.131,-33.491],[151.154,-33.524],[151.111,-33.507],[151.151,-33.562],[151.131,-33.568],[151.12,-33.586],[151.103,-33.588],[151.126,-33.6],[151.162,-33.576],[151.149,-33.537],[151.175,-33.514],[151.247,-33.579],[151.186,-33.592],[151.213,-33.608],[151.164,-33.626],[151.149,-33.655],[151.293,-33.572],[151.303,-33.621],[151.27,-33.656],[151.312,-33.667],[151.305,-33.635],[151.332,-33.623],[151.316,-33.602],[151.335,-33.582],[151.343,-33.625],[151.3,-33.727],[151.318,-33.742],[151.291,-33.747],[151.301,-33.823],[151.204,-33.772],[151.233,-33.787],[151.219,-33.819],[151.269,-33.827],[151.247,-33.853],[151.146,-33.824]],[[151.145,-33.819],[151.144,-33.803],[151.137,-33.815],[151.145,-33.819]],[[151.293,-33.721],[151.298,-33.704],[151.294,-33.715],[151.281,-33.709],[151.27,-33.715],[151.293,-33.721]],[[151.697,-32.844],[151.774,-32.856],[151.784,-32.884],[151.819,-32.831],[151.784,-32.82],[151.757,-32.853],[151.685,-32.824],[151.697,-32.844]],[[151.701,-32.852],[151.712,-32.871],[151.733,-32.88],[151.701,-32.852]],[[151.586,-33.208],[151.557,-33.197],[151.554,-33.228],[151.569,-33.233],[151.586,-33.208]],[[151.455,-33.418],[151.444,-33.423],[151.448,-33.43],[151.455,-33.418]],[[151.436,-33.457],[151.423,-33.46],[151.426,-33.471],[151.436,-33.457]],[[151.383,-33.472],[151.353,-33.489],[151.336,-33.474],[151.369,-33.439],[151.318,-33.431],[151.334,-33.502],[151.377,-33.5],[151.383,-33.472]],[[151.305,-33.482],[151.324,-33.483],[151.307,-33.468],[151.305,-33.482]],[[151.034,-33.985],[151.033,-33.993],[151.066,-33.992],[151.04,-34.005],[151.049,-34.021],[151.116,-33.997],[151.034,-33.985]],[[151.015,-33.983],[151.047,-33.971],[151.045,-33.948],[151.015,-33.983]],[[149.399,-35.319],[149.272,-35.274],[149.239,-35.222],[149.205,-35.23],[149.189,-35.166],[149.121,-35.125],[148.808,-35.31],[148.763,-35.496],[148.789,-35.588],[148.767,-35.647],[148.856,-35.761],[148.887,-35.719],[148.887,-35.81],[148.959,-35.895],[149.049,-35.92],[149.096,-35.846],[149.109,-35.697],[149.078,-35.586],[149.143,-35.593],[149.147,-35.415],[149.208,-35.345],[149.352,-35.351],[149.399,-35.319]]]]}},{"type":"Feature","properties":{"STATE_NAME":"Victoria"},"geometry":{"type":"MultiPolygon","coordinates":[[[[145.132,-38.391],[145.05,-38.43],[145.032,-38.486],[144.887,-38.499],[144.839,-38.43],[144.652,-38.304],[144.815,-38.369],[144.923,-38.349],[144.988,-38.317],[145.032,-38.213],[145.118,-38.146],[145.1,-38.027],[145.018,-37.982],[144.97,-37.861],[144.897,-37.843],[144.904,-37.873],[144.814,-37.875],[144.799,-37.923],[144.516,-38.046],[144.507,-38.092],[144.398,-38.074],[144.362,-38.105],[144.365,-38.145],[144.417,-38.155],[144.426,-38.124],[144.478,-38.164],[144.631,-38.107],[144.692,-38.12],[144.72,-38.147],[144.706,-38.21],[144.687,-38.197],[144.623,-38.251],[144.672,-38.265],[144.614,-38.292],[144.429,-38.282],[144.332,-38.323],[144.254,-38.395],[144.036,-38.476],[143.837,-38.693],[143.682,-38.737],[143.666,-38.779],[143.511,-38.858],[143.357,-38.754],[143.233,-38.766],[143.081,-38.651],[142.858,-38.605],[142.563,-38.422],[142.373,-38.349],[142.262,-38.365],[142.245,-38.396],[142.146,-38.391],[141.93,-38.278],[141.742,-38.253],[141.602,-38.313],[141.65,-38.393],[141.626,-38.406],[141.573,-38.39],[141.543,-38.433],[141.461,-38.362],[141.374,-38.387],[141.392,-38.32],[141.295,-38.221],[140.966,-38.056],[140.964,-33.981],[141.023,-34.06],[141.034,-34.036],[141.089,-34.077],[141.094,-34.051],[141.153,-34.055],[141.186,-34.092],[141.242,-34.061],[141.325,-34.139],[141.359,-34.111],[141.445,-34.168],[141.495,-34.155],[141.51,-34.216],[141.603,-34.191],[141.584,-34.151],[141.73,-34.091],[141.877,-34.137],[141.901,-34.111],[141.933,-34.138],[142.021,-34.125],[142.013,-34.105],[142.037,-34.099],[142.028,-34.123],[142.076,-34.131],[142.083,-34.174],[142.166,-34.152],[142.166,-34.183],[142.244,-34.21],[142.236,-34.307],[142.397,-34.338],[142.351,-34.397],[142.353,-34.47],[142.384,-34.478],[142.36,-34.499],[142.395,-34.493],[142.375,-34.515],[142.401,-34.523],[142.368,-34.53],[142.452,-34.584],[142.468,-34.564],[142.452,-34.634],[142.514,-34.691],[142.5,-34.739],[142.557,-34.775],[142.632,-34.784],[142.618,-34.729],[142.699,-34.725],[142.689,-34.617],[142.762,-34.598],[142.748,-34.577],[142.784,-34.58],[142.791,-34.546],[142.788,-34.59],[142.868,-34.627],[142.887,-34.68],[142.924,-34.648],[142.973,-34.695],[142.989,-34.663],[143.039,-34.703],[143.113,-34.681],[143.107,-34.701],[143.219,-34.729],[143.224,-34.759],[143.274,-34.753],[143.252,-34.773],[143.277,-34.792],[143.348,-34.792],[143.322,-35.037],[143.395,-35.192],[143.449,-35.189],[143.471,-35.219],[143.571,-35.207],[143.591,-35.282],[143.562,-35.337],[143.62,-35.388],[143.751,-35.388],[143.859,-35.48],[143.97,-35.5],[143.99,-35.555],[144.105,-35.591],[144.264,-35.751],[144.349,-35.767],[144.381,-35.852],[144.411,-35.859],[144.408,-35.904],[144.521,-35.97],[144.516,-35.995],[144.615,-36.032],[144.618,-36.077],[144.633,-36.048],[144.655,-36.075],[144.689,-36.061],[144.684,-36.095],[144.726,-36.089],[144.726,-36.118],[144.808,-36.124],[144.863,-36.059],[144.982,-36.072],[144.924,-35.989],[144.992,-35.852],[145.128,-35.821],[145.355,-35.867],[145.535,-35.802],[145.674,-35.926],[145.812,-35.992],[145.903,-35.952],[145.954,-35.962],[145.972,-36.016],[146.135,-36.003],[146.186,-36.042],[146.283,-36.011],[146.283,-36.041],[146.339,-36.026],[146.369,-36.051],[146.422,-35.966],[146.5,-35.991],[146.503,-35.958],[146.55,-35.992],[146.613,-35.973],[146.686,-36.041],[146.732,-36.024],[146.75,-36.061],[146.873,-36.074],[146.944,-36.116],[146.957,-36.078],[147.053,-36.108],[147.123,-35.994],[147.144,-36.038],[147.32,-36.061],[147.405,-35.943],[147.494,-35.944],[147.552,-36.004],[147.584,-35.985],[147.549,-35.965],[147.601,-35.979],[147.708,-35.929],[147.912,-35.995],[147.924,-36.042],[148.0,-36.046],[147.991,-36.121],[148.038,-36.141],[148.035,-36.311],[148.059,-36.32],[148.038,-36.39],[148.125,-36.465],[148.133,-36.567],[148.218,-36.598],[148.109,-36.801],[148.195,-36.796],[149.977,-37.505],[149.775,-37.558],[149.677,-37.685],[149.485,-37.775],[149.275,-37.804],[149.124,-37.777],[148.809,-37.786],[148.728,-37.815],[148.29,-37.811],[147.788,-37.955],[147.476,-38.152],[146.883,-38.635],[146.926,-38.594],[146.844,-38.605],[146.878,-38.626],[146.815,-38.649],[146.713,-38.648],[146.698,-38.675],[146.658,-38.671],[146.653,-38.643],[146.551,-38.704],[146.495,-38.68],[146.387,-38.721],[146.351,-38.673],[146.212,-38.693],[146.186,-38.743],[146.233,-38.809],[146.273,-38.806],[146.293,-38.905],[146.415,-38.852],[146.438,-38.779],[146.479,-38.792],[146.489,-38.91],[146.432,-39.011],[146.483,-39.061],[146.431,-39.066],[146.427,-39.13],[146.346,-39.125],[146.321,-39.078],[146.352,-39.059],[146.249,-38.996],[146.269,-38.973],[146.234,-38.919],[146.134,-38.837],[146.034,-38.813],[146.006,-38.878],[145.921,-38.91],[145.87,-38.776],[145.766,-38.667],[145.714,-38.645],[145.607,-38.679],[145.484,-38.556],[145.372,-38.536],[145.434,-38.494],[145.416,-38.407],[145.515,-38.415],[145.549,-38.372],[145.489,-38.233],[145.347,-38.214],[145.298,-38.248],[145.255,-38.223],[145.223,-38.306],[145.193,-38.297],[145.222,-38.378],[145.184,-38.375],[145.234,-38.41],[145.132,-38.391]],[[146.792,-38.632],[146.825,-38.61],[146.798,-38.62],[146.792,-38.632]]],[[[145.503,-38.354],[145.406,-38.373],[145.353,-38.42],[145.266,-38.403],[145.297,-38.282],[145.352,-38.311],[145.452,-38.307],[145.503,-38.354]]],[[[145.364,-38.553],[145.271,-38.505],[145.221,-38.53],[145.116,-38.518],[145.2,-38.451],[145.291,-38.45],[145.297,-38.506],[145.359,-38.509],[145.341,-38.536],[145.364,-38.553]]]]}},{"type":"Feature","properties":{"STATE_NAME":"Queensland"},"geometry":{"type":"MultiPolygon","coordinates":[[[[141.664,-15.004],[141.59,-14.857],[141.526,-14.487],[141.602,-14.242],[141.599,-14.102],[141.482,-13.953],[141.467,-13.864],[141.523,-13.572],[141.695,-13.27],[141.583,-12.997],[141.636,-12.909],[141.74,-12.853],[141.804,-12.68],[141.863,-12.693],[141.878,-12.671],[141.827,-12.649],[141.894,-12.594],[141.82,-12.601],[141.709,-12.519],[141.643,-12.578],[141.592,-12.559],[141.715,-12.235],[141.85,-11.984],[141.909,-11.955],[141.887,-11.985],[141.944,-12.149],[141.915,-12.165],[141.948,-12.151],[141.932,-12.071],[142.012,-12.039],[141.942,-11.946],[142.12,-11.369],[142.116,-11.225],[142.157,-11.122],[142.133,-10.948],[142.194,-10.915],[142.315,-10.915],[142.438,-10.708],[142.498,-10.717],[142.531,-10.688],[142.609,-10.749],[142.517,-10.844],[142.482,-10.978],[142.589,-10.868],[142.615,-10.942],[142.698,-10.978],[142.716,-10.961],[142.786,-11.074],[142.794,-11.279],[142.869,-11.382],[142.827,-11.477],[142.856,-11.846],[142.975,-11.933],[143.066,-11.928],[143.098,-11.892],[143.167,-11.973],[143.244,-11.969],[143.186,-11.991],[143.079,-12.159],[143.079,-12.337],[143.247,-12.379],[143.303,-12.552],[143.438,-12.612],[143.358,-12.798],[143.351,-12.899],[143.401,-12.9],[143.449,-12.849],[143.544,-12.843],[143.499,-12.95],[143.516,-13.259],[143.533,-13.341],[143.598,-13.422],[143.532,-13.755],[143.622,-13.968],[143.681,-14.015],[143.704,-14.209],[143.781,-14.399],[143.884,-14.482],[144.029,-14.481],[144.168,-14.381],[144.196,-14.261],[144.343,-14.308],[144.436,-14.259],[144.516,-14.167],[144.596,-14.261],[144.587,-14.361],[144.651,-14.358],[144.619,-14.475],[144.693,-14.567],[144.774,-14.545],[144.783,-14.594],[144.91,-14.614],[144.956,-14.745],[145.135,-14.835],[145.23,-14.831],[145.22,-14.883],[145.282,-14.955],[145.352,-14.951],[145.234,-15.139],[145.263,-15.251],[145.315,-15.259],[145.339,-15.226],[145.356,-15.277],[145.286,-15.316],[145.287,-15.375],[145.228,-15.462],[145.262,-15.46],[145.272,-15.541],[145.323,-15.57],[145.313,-15.647],[145.361,-15.72],[145.352,-15.807],[145.377,-15.839],[145.357,-15.91],[145.414,-15.951],[145.477,-16.076],[145.441,-16.175],[145.489,-16.277],[145.418,-16.338],[145.41,-16.459],[145.469,-16.48],[145.582,-16.687],[145.725,-16.804],[145.775,-16.87],[145.779,-16.94],[145.849,-16.871],[145.87,-16.907],[145.919,-16.864],[145.958,-16.897],[145.889,-17.058],[145.949,-17.131],[146.021,-17.347],[146.073,-17.395],[146.077,-17.505],[146.033,-17.512],[146.028,-17.55],[146.068,-17.51],[146.149,-17.649],[146.091,-17.8],[146.12,-17.856],[146.101,-17.977],[146.008,-18.121],[146.016,-18.245],[146.141,-18.364],[146.189,-18.474],[146.338,-18.527],[146.319,-18.646],[146.339,-18.63],[146.273,-18.812],[146.29,-18.892],[146.454,-19.074],[146.678,-19.191],[146.768,-19.185],[146.791,-19.24],[146.836,-19.243],[146.883,-19.304],[146.958,-19.309],[147.016,-19.182],[147.061,-19.256],[147.039,-19.297],[147.126,-19.422],[147.441,-19.421],[147.421,-19.322],[147.615,-19.673],[147.601,-19.757],[147.671,-19.828],[147.761,-19.841],[147.782,-19.805],[147.745,-19.769],[147.752,-19.707],[147.824,-19.71],[147.865,-19.851],[147.918,-19.908],[147.992,-19.928],[148.08,-19.882],[148.112,-19.942],[148.26,-19.977],[148.267,-20.024],[148.231,-20.045],[148.353,-20.163],[148.435,-20.168],[148.466,-20.138],[148.452,-20.059],[148.513,-20.093],[148.563,-20.067],[148.583,-20.198],[148.62,-20.177],[148.601,-20.211],[148.63,-20.22],[148.639,-20.171],[148.653,-20.216],[148.678,-20.179],[148.673,-20.282],[148.739,-20.282],[148.733,-20.254],[148.769,-20.236],[148.802,-20.278],[148.769,-20.3],[148.841,-20.352],[148.816,-20.385],[148.839,-20.431],[148.903,-20.467],[148.884,-20.488],[148.93,-20.534],[148.857,-20.528],[148.821,-20.497],[148.824,-20.426],[148.791,-20.415],[148.794,-20.454],[148.786,-20.43],[148.756,-20.419],[148.784,-20.452],[148.764,-20.48],[148.736,-20.482],[148.693,-20.441],[148.68,-20.441],[148.715,-20.495],[148.662,-20.586],[148.7,-20.64],[148.727,-20.633],[148.706,-20.671],[148.731,-20.717],[148.841,-20.791],[148.787,-20.817],[148.839,-20.825],[148.843,-20.876],[148.875,-20.883],[148.875,-20.863],[148.885,-20.849],[148.915,-20.892],[149.046,-20.903],[149.059,-20.929],[149.012,-20.935],[149.014,-20.992],[149.089,-20.976],[149.123,-21.033],[149.133,-20.996],[149.158,-21.0],[149.206,-21.077],[149.227,-21.063],[149.223,-21.148],[149.217,-21.123],[149.199,-21.138],[149.163,-21.132],[149.153,-21.143],[149.215,-21.145],[149.196,-21.211],[149.174,-21.199],[149.214,-21.242],[149.179,-21.285],[149.256,-21.245],[149.299,-21.273],[149.317,-21.393],[149.276,-21.401],[149.331,-21.41],[149.338,-21.427],[149.298,-21.426],[149.29,-21.507],[149.34,-21.475],[149.35,-21.509],[149.396,-21.493],[149.374,-21.535],[149.438,-21.554],[149.443,-21.593],[149.485,-21.532],[149.439,-21.64],[149.48,-21.743],[149.425,-21.743],[149.422,-21.772],[149.431,-21.746],[149.434,-21.818],[149.472,-21.839],[149.465,-21.926],[149.597,-22.281],[149.658,-22.355],[149.767,-22.371],[149.747,-22.387],[149.752,-22.436],[149.811,-22.382],[149.888,-22.493],[149.963,-22.539],[149.991,-22.602],[150.018,-22.64],[150.047,-22.661],[149.913,-22.343],[149.972,-22.33],[149.915,-22.321],[149.956,-22.185],[150.043,-22.126],[150.192,-22.325],[150.177,-22.36],[150.217,-22.394],[150.301,-22.398],[150.498,-22.56],[150.502,-22.543],[150.492,-22.521],[150.545,-22.561],[150.515,-22.557],[150.549,-22.617],[150.552,-22.566],[150.598,-22.559],[150.533,-22.45],[150.59,-22.464],[150.539,-22.443],[150.53,-22.402],[150.562,-22.317],[150.646,-22.346],[150.618,-22.348],[150.643,-22.38],[150.611,-22.389],[150.658,-22.414],[150.627,-22.442],[150.655,-22.422],[150.666,-22.454],[150.667,-22.347],[150.693,-22.431],[150.753,-22.446],[150.724,-22.519],[150.644,-22.474],[150.68,-22.573],[150.725,-22.563],[150.732,-22.623],[150.694,-22.606],[150.707,-22.636],[150.733,-22.641],[150.736,-22.624],[150.748,-22.636],[150.759,-22.627],[150.738,-22.624],[150.774,-22.552],[150.754,-22.524],[150.784,-22.529],[150.778,-22.639],[150.835,-22.684],[150.75,-23.129],[150.828,-23.236],[150.825,-23.28],[150.768,-23.303],[150.871,-23.481],[150.79,-23.51],[150.878,-23.552],[150.834,-23.554],[150.866,-23.575],[150.857,-23.621],[150.935,-23.544],[150.959,-23.599],[150.925,-23.623],[150.968,-23.605],[150.975,-23.555],[151.027,-23.572],[151.04,-23.637],[151.122,-23.671],[151.135,-23.698],[151.11,-23.704],[151.151,-23.728],[151.173,-23.816],[151.318,-23.855],[151.305,-23.9],[151.324,-23.875],[151.427,-23.987],[151.425,-24.046],[151.438,-24.077],[151.443,-24.026],[151.466,-24.072],[151.494,-24.067],[151.441,-23.992],[151.544,-24.029],[151.501,-24.045],[151.545,-24.113],[151.56,-24.074],[151.58,-24.087],[151.555,-24.07],[151.574,-24.036],[151.682,-24.104],[151.677,-24.05],[151.604,-24.009],[151.611,-23.979],[151.73,-24.022],[151.705,-24.04],[151.716,-24.087],[151.738,-24.003],[151.765,-24.015],[151.771,-24.13],[151.876,-24.172],[151.849,-24.218],[151.879,-24.194],[151.886,-24.149],[152.044,-24.525],[152.274,-24.712],[152.379,-24.732],[152.381,-24.797],[152.413,-24.758],[152.468,-24.816],[152.486,-24.971],[152.551,-25.074],[152.542,-25.069],[152.534,-25.09],[152.546,-25.074],[152.633,-25.152],[152.555,-25.172],[152.54,-25.19],[152.547,-25.205],[152.615,-25.183],[152.644,-25.234],[152.722,-25.27],[152.814,-25.243],[152.834,-25.276],[152.914,-25.293],[152.924,-25.431],[152.897,-25.419],[152.824,-25.494],[152.956,-25.434],[152.897,-25.499],[152.903,-25.542],[152.862,-25.553],[152.911,-25.675],[152.878,-25.684],[152.976,-25.771],[152.937,-25.815],[152.987,-25.803],[153.02,-25.83],[152.994,-25.881],[153.022,-25.866],[153.03,-25.889],[152.997,-25.935],[153.031,-25.934],[152.999,-25.969],[153.017,-25.997],[153.056,-25.931],[153.025,-25.908],[153.058,-25.914],[153.066,-25.886],[153.046,-25.849],[153.072,-25.823],[153.046,-25.808],[153.072,-25.812],[153.12,-25.934],[153.192,-25.933],[153.061,-26.313],[153.077,-26.379],[153.12,-26.379],[153.099,-26.643],[153.139,-26.679],[153.151,-26.802],[153.125,-26.806],[153.092,-26.895],[153.061,-26.893],[153.043,-26.946],[153.065,-26.976],[153.025,-26.988],[153.06,-26.989],[153.099,-27.064],[153.144,-27.075],[153.043,-27.149],[153.038,-27.128],[153.022,-27.124],[153.037,-27.197],[153.117,-27.198],[153.108,-27.262],[153.054,-27.23],[153.07,-27.314],[153.161,-27.377],[153.142,-27.416],[153.05,-27.44],[153.053,-27.46],[153.111,-27.443],[153.165,-27.401],[153.158,-27.392],[153.177,-27.362],[153.191,-27.367],[153.165,-27.397],[153.189,-27.476],[153.241,-27.465],[153.318,-27.582],[153.297,-27.595],[153.323,-27.7],[153.299,-27.711],[153.383,-27.709],[153.368,-27.649],[153.416,-27.642],[153.388,-27.657],[153.385,-27.709],[153.412,-27.741],[153.439,-27.736],[153.427,-27.779],[153.384,-27.784],[153.412,-27.791],[153.395,-27.819],[153.367,-27.801],[153.376,-27.845],[153.395,-27.832],[153.411,-27.87],[153.396,-27.886],[153.419,-27.983],[153.421,-27.941],[153.435,-27.934],[153.45,-28.084],[153.514,-28.161],[153.552,-28.164],[153.535,-28.178],[153.477,-28.157],[153.357,-28.25],[153.178,-28.247],[153.109,-28.358],[152.88,-28.31],[152.751,-28.364],[152.638,-28.311],[152.615,-28.27],[152.579,-28.339],[152.526,-28.306],[152.534,-28.263],[152.464,-28.259],[152.386,-28.369],[152.31,-28.363],[152.217,-28.449],[152.161,-28.433],[152.017,-28.525],[151.956,-28.519],[152.01,-28.665],[152.076,-28.708],[152.043,-28.732],[152.015,-28.851],[152.038,-28.865],[152.01,-28.908],[151.916,-28.929],[151.849,-28.908],[151.832,-28.96],[151.778,-28.96],[151.734,-28.872],[151.707,-28.872],[151.546,-28.953],[151.498,-29.02],[151.502,-29.071],[151.394,-29.178],[151.315,-29.166],[151.28,-29.101],[151.275,-28.939],[151.103,-28.836],[151.045,-28.844],[151.011,-28.741],[150.752,-28.633],[150.633,-28.677],[150.446,-28.665],[150.29,-28.537],[150.212,-28.574],[150.152,-28.55],[150.016,-28.581],[149.977,-28.613],[149.721,-28.609],[149.703,-28.634],[149.588,-28.573],[149.503,-28.574],[149.453,-28.595],[149.387,-28.696],[149.297,-28.71],[149.081,-28.842],[149.033,-28.956],[148.958,-28.999],[140.999,-28.999],[140.999,-25.996],[137.999,-25.997],[138.001,-16.545],[138.176,-16.686],[138.324,-16.75],[138.48,-16.784],[138.629,-16.768],[138.884,-16.885],[139.039,-16.912],[139.087,-16.999],[139.158,-17.029],[139.155,-17.164],[139.238,-17.32],[139.306,-17.365],[139.417,-17.375],[139.45,-17.394],[139.436,-17.423],[139.477,-17.401],[139.647,-17.538],[139.822,-17.571],[139.834,-17.605],[139.938,-17.631],[140.004,-17.715],[140.385,-17.678],[140.594,-17.598],[140.828,-17.465],[140.887,-17.382],[140.962,-17.093],[140.958,-16.998],[141.065,-16.87],[141.082,-16.803],[141.204,-16.692],[141.296,-16.496],[141.286,-16.408],[141.433,-16.075],[141.373,-15.917],[141.409,-15.871],[141.435,-15.658],[141.569,-15.297],[141.576,-15.205],[141.632,-15.162],[141.664,-15.004]],[[141.663,-15.003],[141.66,-14.983],[141.653,-14.974],[141.663,-15.003]],[[153.428,-27.989],[153.415,-27.999],[153.426,-27.999],[153.428,-27.989]],[[153.385,-27.874],[153.381,-27.861],[153.381,-27.874],[153.385,-27.874]],[[153.38,-27.882],[153.342,-27.895],[153.349,-27.919],[153.358,-27.893],[153.38,-27.882]],[[153.381,-27.859],[153.368,-27.849],[153.36,-27.849],[153.381,-27.859]],[[153.189,-27.489],[153.187,-27.491],[153.193,-27.495],[153.189,-27.489]],[[153.053,-27.475],[153.049,-27.474],[153.036,-27.465],[153.043,-27.477],[153.053,-27.475]],[[153.032,-27.482],[153.03,-27.479],[153.017,-27.468],[153.004,-27.475],[152.995,-27.49],[153.021,-27.501],[153.0,-27.507],[152.998,-27.515],[153.023,-27.5],[153.005,-27.476],[153.032,-27.482]],[[153.008,-27.521],[152.971,-27.505],[152.966,-27.514],[152.974,-27.543],[152.939,-27.525],[152.927,-27.529],[152.925,-27.541],[152.903,-27.544],[152.906,-27.554],[152.894,-27.56],[152.893,-27.577],[152.905,-27.601],[152.874,-27.579],[152.856,-27.596],[152.906,-27.602],[152.895,-27.579],[152.907,-27.556],[152.904,-27.545],[152.974,-27.545],[152.972,-27.506],[153.008,-27.521]],[[152.937,-25.761],[152.937,-25.768],[152.942,-25.765],[152.937,-25.761]],[[152.523,-25.07],[152.523,-25.069],[152.508,-25.078],[152.523,-25.07]],[[150.574,-22.482],[150.608,-22.501],[150.593,-22.476],[150.574,-22.482]],[[142.589,-10.89],[142.588,-10.889],[142.583,-10.901],[142.589,-10.89]],[[149.451,-21.729],[149.436,-21.722],[149.433,-21.727],[149.451,-21.729]],[[151.636,-24.0],[151.642,-24.003],[151.638,-23.997],[151.636,-24.0]]],[[[153.547,-27.435],[153.454,-27.729],[153.413,-27.739],[153.393,-27.707],[153.422,-27.642],[153.398,-27.496],[153.438,-27.395],[153.547,-27.435]]],[[[153.468,-27.028],[153.42,-27.204],[153.428,-27.364],[153.366,-27.201],[153.361,-27.061],[153.468,-27.028]]],[[[152.95,-25.574],[153.051,-25.345],[153.052,-25.245],[152.992,-25.221],[153.222,-24.996],[153.226,-24.912],[153.169,-24.832],[153.119,-24.815],[153.265,-24.697],[153.27,-24.893],[153.36,-25.006],[153.108,-25.56],[153.078,-25.792],[153.015,-25.769],[152.95,-25.574]]],[[[153.208,-27.082],[153.166,-27.099],[153.079,-26.972],[153.077,-26.91],[153.13,-26.874],[153.13,-26.814],[153.208,-27.082]]],[[[151.315,-23.759],[151.285,-23.797],[151.262,-23.749],[151.245,-23.794],[151.215,-23.794],[151.13,-23.669],[151.048,-23.623],[151.033,-23.57],[150.979,-23.489],[151.057,-23.448],[151.073,-23.488],[151.202,-23.512],[151.183,-23.541],[151.235,-23.484],[151.226,-23.609],[151.315,-23.759]]],[[[146.237,-18.282],[146.223,-18.195],[146.251,-18.237],[146.306,-18.242],[146.276,-18.318],[146.358,-18.418],[146.324,-18.486],[146.224,-18.479],[146.191,-18.367],[146.071,-18.247],[146.127,-18.235],[146.237,-18.282]]],[[[142.344,-10.172],[142.279,-10.26],[142.184,-10.189],[142.22,-10.129],[142.266,-10.116],[142.344,-10.172]]],[[[142.277,-10.706],[142.15,-10.765],[142.11,-10.662],[142.204,-10.595],[142.277,-10.706]]],[[[139.712,-16.531],[139.657,-16.519],[139.596,-16.554],[139.567,-16.475],[139.547,-16.461],[139.531,-16.515],[139.475,-16.526],[139.514,-16.545],[139.507,-16.577],[139.484,-16.556],[139.453,-16.57],[139.473,-16.583],[139.439,-16.631],[139.451,-16.666],[139.376,-16.642],[139.374,-16.686],[139.313,-16.73],[139.23,-16.731],[139.151,-16.634],[139.304,-16.463],[139.465,-16.446],[139.548,-16.391],[139.676,-16.451],[139.712,-16.531]]],[[[139.519,-17.123],[139.427,-17.106],[139.435,-17.139],[139.394,-17.083],[139.462,-17.025],[139.49,-17.045],[139.494,-16.98],[139.578,-17.094],[139.519,-17.123]],[[139.48,-17.094],[139.485,-17.093],[139.481,-17.085],[139.48,-17.094]]]]}},{"type":"Feature","properties":{"STATE_NAME":"South Australia"},"geometry":{"type":"MultiPolygon","coordinates":[[[[138.5,-34.844],[138.516,-34.811],[138.566,-34.825],[138.533,-34.737],[138.431,-34.668],[138.408,-34.6],[138.266,-34.477],[138.223,-34.311],[138.146,-34.266],[138.166,-34.221],[138.077,-34.134],[138.002,-34.257],[138.007,-34.349],[137.918,-34.428],[137.888,-34.507],[137.876,-34.598],[137.908,-34.616],[137.865,-34.778],[137.8,-34.878],[137.764,-35.041],[137.725,-35.054],[137.759,-35.115],[137.637,-35.168],[137.555,-35.117],[137.423,-35.098],[137.335,-35.168],[137.238,-35.165],[137.174,-35.237],[137.001,-35.223],[136.883,-35.3],[136.822,-35.245],[136.846,-35.19],[136.941,-35.129],[136.961,-35.082],[136.93,-35.029],[137.014,-34.893],[137.093,-34.92],[137.276,-34.894],[137.375,-34.954],[137.449,-34.91],[137.509,-34.618],[137.483,-34.439],[137.415,-34.46],[137.5,-34.312],[137.5,-34.227],[137.45,-34.136],[137.522,-34.129],[137.568,-34.044],[137.527,-34.004],[137.631,-33.922],[137.6,-33.877],[137.879,-33.597],[137.92,-33.587],[137.893,-33.626],[137.918,-33.625],[137.935,-33.553],[137.977,-33.559],[137.939,-33.548],[137.949,-33.512],[137.87,-33.397],[137.881,-33.323],[137.852,-33.326],[137.811,-33.266],[137.838,-33.207],[138.001,-33.132],[138.012,-33.178],[138.024,-33.182],[138.054,-33.115],[138.025,-33.106],[138.046,-33.087],[138.019,-33.036],[137.952,-33.006],[137.901,-32.778],[137.944,-32.758],[137.838,-32.696],[137.868,-32.664],[137.803,-32.608],[137.822,-32.581],[137.825,-32.604],[137.839,-32.604],[137.836,-32.575],[137.782,-32.55],[137.766,-32.44],[137.75,-32.415],[137.75,-32.708],[137.81,-32.749],[137.798,-32.894],[137.75,-32.922],[137.787,-33.0],[137.641,-32.955],[137.536,-33.095],[137.452,-33.131],[137.434,-33.23],[137.374,-33.293],[137.361,-33.439],[137.315,-33.472],[137.213,-33.661],[136.992,-33.725],[136.593,-33.9],[136.575,-33.943],[136.363,-34.069],[136.324,-34.182],[136.234,-34.296],[136.112,-34.359],[136.13,-34.407],[136.092,-34.43],[136.117,-34.426],[136.122,-34.467],[136.092,-34.543],[136.056,-34.479],[136.022,-34.516],[135.932,-34.529],[135.902,-34.593],[135.937,-34.649],[135.891,-34.616],[135.854,-34.665],[135.854,-34.715],[135.891,-34.751],[135.846,-34.753],[135.786,-34.809],[135.893,-34.806],[135.956,-34.757],[135.981,-34.785],[135.979,-34.731],[136.007,-34.736],[136.016,-34.794],[135.96,-34.849],[136.005,-34.98],[135.954,-35.006],[135.929,-34.948],[135.856,-34.927],[135.854,-34.887],[135.792,-34.861],[135.713,-34.865],[135.686,-34.945],[135.619,-34.944],[135.605,-34.879],[135.474,-34.744],[135.325,-34.686],[135.342,-34.629],[135.252,-34.552],[135.109,-34.588],[135.206,-34.429],[135.221,-34.499],[135.354,-34.522],[135.298,-34.552],[135.402,-34.633],[135.366,-34.642],[135.517,-34.613],[135.432,-34.603],[135.446,-34.537],[135.41,-34.539],[135.405,-34.507],[135.391,-34.534],[135.422,-34.549],[135.396,-34.593],[135.422,-34.601],[135.389,-34.595],[135.346,-34.268],[135.304,-34.184],[135.241,-34.15],[135.279,-34.12],[135.252,-33.981],[135.04,-33.755],[134.83,-33.626],[134.863,-33.547],[134.845,-33.436],[134.802,-33.329],[134.658,-33.234],[134.719,-33.23],[134.702,-33.175],[134.595,-33.139],[134.558,-33.161],[134.598,-33.197],[134.641,-33.183],[134.631,-33.214],[134.664,-33.223],[134.631,-33.245],[134.451,-33.145],[134.369,-33.176],[134.358,-33.125],[134.276,-33.025],[134.279,-33.107],[134.358,-33.148],[134.328,-33.199],[134.26,-33.153],[134.23,-33.043],[134.168,-33.056],[134.139,-33.018],[134.194,-33.014],[134.202,-32.964],[134.167,-32.927],[134.141,-32.944],[134.061,-32.908],[134.138,-32.84],[134.06,-32.722],[134.081,-32.71],[134.205,-32.725],[134.153,-32.724],[134.2,-32.747],[134.197,-32.795],[134.222,-32.79],[134.29,-32.693],[134.266,-32.574],[134.163,-32.469],[134.057,-32.441],[134.086,-32.471],[134.037,-32.46],[133.992,-32.505],[133.923,-32.495],[133.894,-32.541],[133.849,-32.542],[133.867,-32.399],[133.919,-32.428],[133.951,-32.389],[133.821,-32.234],[133.77,-32.264],[133.757,-32.206],[133.679,-32.203],[133.693,-32.155],[133.643,-32.145],[133.667,-32.104],[133.592,-32.087],[133.553,-32.17],[133.525,-32.127],[133.497,-32.151],[133.473,-32.1],[133.451,-32.136],[133.395,-32.142],[133.412,-32.178],[133.464,-32.172],[133.492,-32.196],[133.488,-32.206],[133.446,-32.179],[133.39,-32.2],[133.323,-32.18],[133.253,-32.211],[133.165,-32.17],[133.126,-32.209],[133.138,-32.175],[133.088,-32.127],[133.007,-32.083],[132.98,-32.107],[132.964,-32.065],[132.747,-31.949],[132.531,-31.935],[132.446,-31.971],[132.438,-32.001],[132.473,-32.03],[132.415,-31.999],[132.201,-32.027],[131.759,-31.72],[131.149,-31.464],[131.026,-31.538],[130.806,-31.606],[130.152,-31.577],[129.001,-31.687],[129.002,-25.999],[140.999,-25.996],[141.003,-34.022],[140.964,-33.981],[140.966,-38.056],[140.662,-38.061],[140.396,-37.919],[140.248,-37.686],[140.113,-37.578],[140.121,-37.531],[140.05,-37.479],[139.993,-37.486],[139.841,-37.322],[139.74,-37.182],[139.743,-37.156],[139.788,-37.158],[139.791,-37.113],[139.67,-36.957],[139.843,-36.84],[139.851,-36.647],[139.655,-36.222],[139.377,-35.892],[139.055,-35.65],[138.763,-35.521],[138.632,-35.544],[138.522,-35.643],[138.276,-35.639],[138.191,-35.665],[138.096,-35.625],[138.165,-35.519],[138.245,-35.501],[138.341,-35.393],[138.441,-35.35],[138.469,-35.109],[138.518,-35.032],[138.476,-34.857],[138.496,-34.765],[138.5,-34.844]]],[[[138.135,-35.841],[138.041,-35.904],[137.911,-35.86],[137.741,-35.853],[137.612,-35.913],[137.603,-36.009],[137.461,-36.075],[137.371,-35.998],[137.209,-35.974],[137.131,-36.034],[136.997,-36.017],[136.915,-36.044],[136.854,-36.017],[136.705,-36.064],[136.666,-35.976],[136.582,-35.951],[136.533,-35.877],[136.587,-35.749],[137.07,-35.669],[137.313,-35.579],[137.519,-35.596],[137.622,-35.561],[137.627,-35.597],[137.57,-35.632],[137.644,-35.654],[137.578,-35.726],[137.78,-35.724],[137.803,-35.758],[137.746,-35.801],[137.754,-35.843],[137.815,-35.822],[137.758,-35.806],[137.777,-35.784],[137.852,-35.795],[137.901,-35.72],[137.941,-35.716],[138.046,-35.743],[138.135,-35.841]]]]}},{"type":"Feature","properties":{"STATE_NAME":"Western Australia"},"geometry":{"type":"MultiPolygon","coordinates":[[[[113.394,-26.393],[113.355,-26.301],[113.336,-26.3],[113.387,-26.213],[113.364,-26.017],[113.507,-26.364],[113.486,-26.485],[113.528,-26.362],[113.494,-26.31],[113.537,-26.28],[113.577,-26.505],[113.558,-26.574],[113.598,-26.614],[113.593,-26.512],[113.614,-26.489],[113.618,-26.518],[113.631,-26.463],[113.626,-26.571],[113.642,-26.619],[113.664,-26.596],[113.664,-26.674],[113.705,-26.662],[113.687,-26.602],[113.738,-26.618],[113.769,-26.587],[113.808,-26.611],[113.883,-26.508],[113.881,-26.335],[113.798,-26.252],[113.688,-26.218],[113.621,-26.101],[113.58,-26.097],[113.559,-25.946],[113.461,-25.809],[113.479,-25.783],[113.472,-25.709],[113.445,-25.709],[113.469,-25.785],[113.414,-25.725],[113.432,-25.626],[113.511,-25.503],[113.525,-25.608],[113.581,-25.621],[113.607,-25.714],[113.722,-25.794],[113.722,-25.868],[113.762,-25.879],[113.734,-26.014],[113.7,-26.045],[113.701,-26.132],[113.728,-26.187],[113.703,-26.2],[113.754,-26.185],[113.774,-26.215],[113.813,-26.179],[113.884,-26.06],[113.879,-26.068],[113.885,-26.029],[113.865,-25.956],[113.877,-25.945],[113.914,-25.982],[113.894,-26.035],[113.911,-26.122],[113.948,-26.143],[113.934,-26.204],[113.973,-26.343],[114.077,-26.467],[114.21,-26.372],[114.238,-26.313],[114.188,-26.18],[114.224,-26.119],[114.225,-26.165],[114.255,-26.145],[114.195,-25.984],[114.218,-25.969],[114.224,-25.987],[114.245,-25.993],[114.265,-25.982],[114.267,-25.888],[114.004,-25.619],[113.817,-25.174],[113.712,-25.103],[113.666,-25.023],[113.692,-24.929],[113.652,-24.905],[113.655,-24.882],[113.644,-24.878],[113.707,-24.851],[113.618,-24.859],[113.623,-24.746],[113.407,-24.484],[113.39,-24.224],[113.443,-24.182],[113.422,-24.043],[113.459,-24.014],[113.47,-23.899],[113.532,-23.775],[113.613,-23.631],[113.778,-23.478],[113.794,-23.296],[113.76,-23.121],[113.812,-23.083],[113.826,-22.956],[113.755,-22.756],[113.67,-22.717],[113.686,-22.664],[113.654,-22.579],[113.738,-22.471],[113.934,-21.973],[114.024,-21.851],[114.165,-21.786],[114.191,-21.815],[114.149,-21.867],[114.08,-22.154],[114.133,-22.262],[114.116,-22.331],[114.178,-22.305],[114.178,-22.353],[114.122,-22.416],[114.144,-22.538],[114.282,-22.434],[114.317,-22.441],[114.34,-22.516],[114.404,-22.469],[114.38,-22.441],[114.408,-22.429],[114.393,-22.391],[114.423,-22.396],[114.396,-22.383],[114.407,-22.351],[114.452,-22.363],[114.409,-22.331],[114.434,-22.295],[114.461,-22.329],[114.43,-22.275],[114.473,-22.264],[114.451,-22.238],[114.482,-22.251],[114.453,-22.208],[114.5,-22.22],[114.456,-22.16],[114.508,-22.184],[114.517,-22.066],[114.552,-22.066],[114.559,-22.02],[114.574,-22.044],[114.571,-22.002],[114.606,-22.007],[114.621,-21.936],[114.664,-21.911],[114.643,-21.909],[114.648,-21.845],[114.686,-21.833],[114.685,-21.868],[114.699,-21.814],[114.778,-21.791],[114.914,-21.688],[114.973,-21.67],[114.945,-21.69],[115.04,-21.692],[115.109,-21.632],[115.142,-21.659],[115.242,-21.577],[115.298,-21.594],[115.413,-21.525],[115.435,-21.542],[115.457,-21.508],[115.459,-21.528],[115.443,-21.533],[115.447,-21.544],[115.464,-21.547],[115.468,-21.515],[115.492,-21.546],[115.475,-21.506],[115.511,-21.525],[115.51,-21.458],[115.549,-21.435],[115.565,-21.457],[115.551,-21.413],[115.584,-21.385],[115.597,-21.411],[115.589,-21.38],[115.64,-21.327],[115.653,-21.346],[115.662,-21.342],[115.653,-21.316],[115.756,-21.254],[115.753,-21.284],[115.784,-21.257],[115.779,-21.289],[115.792,-21.246],[115.831,-21.251],[115.834,-21.206],[115.918,-21.079],[116.097,-21.0],[116.094,-21.024],[116.105,-21.038],[116.103,-21.001],[116.146,-21.013],[116.188,-20.968],[116.19,-20.901],[116.227,-20.883],[116.191,-20.888],[116.205,-20.834],[116.286,-20.881],[116.399,-20.822],[116.459,-20.843],[116.442,-20.824],[116.536,-20.786],[116.526,-20.753],[116.605,-20.754],[116.579,-20.692],[116.637,-20.675],[116.602,-20.728],[116.631,-20.711],[116.63,-20.732],[116.64,-20.726],[116.664,-20.741],[116.642,-20.722],[116.685,-20.723],[116.689,-20.706],[116.642,-20.705],[116.765,-20.633],[116.746,-20.621],[116.811,-20.529],[116.867,-20.526],[116.787,-20.665],[116.828,-20.709],[116.924,-20.712],[116.92,-20.741],[116.99,-20.658],[117.039,-20.668],[117.094,-20.624],[117.128,-20.654],[117.183,-20.592],[117.199,-20.632],[117.157,-20.657],[117.181,-20.645],[117.2,-20.667],[117.172,-20.701],[117.195,-20.68],[117.216,-20.725],[117.223,-20.695],[117.348,-20.736],[117.35,-20.779],[117.37,-20.734],[117.382,-20.784],[117.395,-20.731],[117.457,-20.757],[117.443,-20.731],[117.595,-20.704],[117.631,-20.664],[117.617,-20.687],[117.642,-20.678],[117.628,-20.709],[117.656,-20.715],[117.68,-20.667],[117.704,-20.695],[117.81,-20.674],[117.774,-20.664],[117.898,-20.585],[117.882,-20.552],[117.912,-20.577],[117.92,-20.544],[117.942,-20.567],[117.975,-20.55],[117.971,-20.525],[117.943,-20.537],[117.962,-20.507],[117.932,-20.527],[117.941,-20.48],[117.965,-20.491],[118.182,-20.336],[118.2,-20.369],[118.165,-20.383],[118.205,-20.376],[118.196,-20.404],[118.215,-20.371],[118.318,-20.365],[118.289,-20.349],[118.346,-20.33],[118.364,-20.374],[118.417,-20.34],[118.489,-20.351],[118.479,-20.329],[118.488,-20.326],[118.506,-20.349],[118.562,-20.294],[118.552,-20.346],[118.574,-20.328],[118.579,-20.358],[118.63,-20.334],[118.573,-20.316],[118.598,-20.287],[118.666,-20.343],[118.768,-20.282],[118.845,-20.286],[118.842,-20.231],[118.875,-20.242],[118.87,-20.253],[118.883,-20.261],[118.878,-20.243],[118.86,-20.225],[118.897,-20.168],[118.959,-20.127],[118.994,-20.036],[119.068,-20.015],[119.1,-19.959],[119.161,-20.012],[119.207,-20.024],[119.172,-20.008],[119.172,-19.957],[119.471,-20.006],[119.569,-20.08],[119.701,-19.995],[119.697,-20.035],[119.725,-20.026],[119.764,-19.956],[119.866,-19.97],[120.196,-19.914],[120.631,-19.77],[121.114,-19.539],[121.333,-19.342],[121.511,-19.094],[121.553,-18.943],[121.578,-18.951],[121.6,-18.941],[121.576,-18.947],[121.603,-18.869],[121.643,-18.818],[121.653,-18.836],[121.656,-18.767],[121.618,-18.706],[121.741,-18.705],[121.793,-18.657],[121.791,-18.609],[121.729,-18.576],[121.791,-18.504],[121.795,-18.518],[121.817,-18.492],[121.789,-18.484],[121.815,-18.451],[121.872,-18.472],[121.947,-18.439],[122.064,-18.326],[122.2,-18.25],[122.215,-18.204],[122.315,-18.172],[122.37,-18.116],[122.378,-17.99],[122.251,-17.952],[122.207,-18.009],[122.175,-17.974],[122.213,-17.874],[122.2,-17.685],[122.145,-17.56],[122.173,-17.264],[122.211,-17.24],[122.226,-17.186],[122.252,-17.158],[122.319,-17.159],[122.288,-17.14],[122.318,-17.13],[122.253,-17.12],[122.366,-16.998],[122.47,-16.936],[122.431,-16.983],[122.481,-16.981],[122.48,-16.895],[122.508,-16.954],[122.528,-16.948],[122.554,-16.962],[122.612,-16.965],[122.534,-16.837],[122.571,-16.836],[122.553,-16.805],[122.579,-16.762],[122.637,-16.801],[122.757,-16.746],[122.743,-16.772],[122.774,-16.751],[122.787,-16.772],[122.782,-16.747],[122.846,-16.792],[122.838,-16.744],[122.776,-16.735],[122.784,-16.696],[122.742,-16.683],[122.771,-16.59],[122.81,-16.545],[122.795,-16.572],[122.884,-16.53],[122.854,-16.513],[122.904,-16.489],[122.925,-16.389],[122.988,-16.381],[122.982,-16.406],[123.039,-16.359],[123.015,-16.406],[123.077,-16.44],[123.045,-16.474],[122.983,-16.465],[122.971,-16.516],[123.008,-16.528],[122.954,-16.58],[122.997,-16.602],[122.996,-16.641],[123.023,-16.605],[123.039,-16.621],[123.051,-16.691],[123.084,-16.665],[123.094,-16.709],[123.139,-16.688],[123.103,-16.784],[123.161,-16.818],[123.149,-16.925],[123.263,-17.012],[123.291,-17.108],[123.383,-17.24],[123.393,-17.316],[123.514,-17.418],[123.58,-17.584],[123.6,-17.516],[123.564,-17.406],[123.646,-17.184],[123.584,-17.033],[123.648,-17.0],[123.66,-17.04],[123.741,-17.068],[123.862,-17.217],[123.912,-17.212],[123.83,-17.135],[123.796,-17.004],[123.959,-16.852],[123.951,-16.818],[123.942,-16.852],[123.796,-16.912],[123.712,-16.753],[123.618,-16.679],[123.503,-16.659],[123.574,-16.625],[123.563,-16.588],[123.615,-16.554],[123.526,-16.544],[123.542,-16.572],[123.518,-16.566],[123.512,-16.598],[123.513,-16.568],[123.468,-16.518],[123.429,-16.511],[123.429,-16.499],[123.497,-16.515],[123.473,-16.47],[123.643,-16.53],[123.583,-16.499],[123.663,-16.491],[123.505,-16.42],[123.582,-16.428],[123.511,-16.391],[123.509,-16.38],[123.608,-16.426],[123.621,-16.43],[123.63,-16.423],[123.666,-16.437],[123.697,-16.415],[123.629,-16.357],[123.664,-16.383],[123.717,-16.372],[123.697,-16.338],[123.627,-16.29],[123.599,-16.323],[123.55,-16.283],[123.599,-16.264],[123.576,-16.245],[123.617,-16.262],[123.557,-16.178],[123.693,-16.151],[123.701,-16.19],[123.703,-16.154],[123.728,-16.157],[123.703,-16.129],[123.771,-16.171],[123.797,-16.209],[123.815,-16.22],[123.772,-16.216],[123.797,-16.263],[123.783,-16.243],[123.783,-16.262],[123.777,-16.252],[123.743,-16.253],[123.741,-16.263],[123.796,-16.316],[123.866,-16.328],[123.876,-16.378],[123.836,-16.354],[123.871,-16.447],[123.867,-16.413],[123.9,-16.423],[123.884,-16.354],[123.909,-16.363],[123.886,-16.343],[123.917,-16.352],[123.884,-16.304],[123.988,-16.37],[123.934,-16.298],[124.0,-16.292],[123.91,-16.21],[124.0,-16.265],[124.124,-16.28],[124.18,-16.31],[124.223,-16.418],[124.325,-16.415],[124.319,-16.469],[124.39,-16.445],[124.41,-16.543],[124.43,-16.498],[124.468,-16.499],[124.403,-16.47],[124.389,-16.415],[124.337,-16.419],[124.387,-16.346],[124.449,-16.411],[124.745,-16.39],[124.841,-16.434],[124.917,-16.421],[124.948,-16.393],[124.953,-16.371],[124.901,-16.416],[124.814,-16.416],[124.693,-16.345],[124.571,-16.329],[124.424,-16.36],[124.395,-16.339],[124.408,-16.251],[124.379,-16.217],[124.399,-16.169],[124.435,-16.179],[124.444,-16.065],[124.477,-16.079],[124.458,-16.103],[124.514,-16.165],[124.508,-16.206],[124.561,-16.119],[124.599,-16.127],[124.647,-16.098],[124.588,-16.11],[124.589,-15.973],[124.643,-15.988],[124.598,-15.968],[124.626,-15.921],[124.608,-15.891],[124.655,-15.854],[124.682,-15.889],[124.705,-15.814],[124.742,-15.822],[124.704,-15.75],[124.675,-15.785],[124.705,-15.741],[124.633,-15.779],[124.499,-15.998],[124.512,-15.934],[124.477,-15.942],[124.475,-15.886],[124.479,-15.893],[124.499,-15.89],[124.461,-15.854],[124.477,-15.82],[124.461,-15.803],[124.443,-15.809],[124.439,-15.87],[124.409,-15.864],[124.386,-15.718],[124.396,-15.731],[124.424,-15.733],[124.437,-15.711],[124.397,-15.726],[124.369,-15.672],[124.413,-15.681],[124.414,-15.637],[124.444,-15.67],[124.45,-15.603],[124.452,-15.616],[124.501,-15.637],[124.454,-15.592],[124.405,-15.615],[124.418,-15.549],[124.487,-15.497],[124.496,-15.517],[124.51,-15.525],[124.493,-15.486],[124.446,-15.506],[124.518,-15.469],[124.629,-15.526],[124.618,-15.466],[124.646,-15.425],[124.674,-15.498],[124.676,-15.401],[124.745,-15.362],[124.662,-15.355],[124.662,-15.325],[124.707,-15.321],[124.667,-15.297],[124.675,-15.255],[124.701,-15.278],[124.705,-15.253],[124.771,-15.302],[124.736,-15.343],[124.753,-15.354],[124.783,-15.294],[124.831,-15.326],[124.822,-15.312],[124.847,-15.299],[124.836,-15.316],[124.848,-15.329],[124.841,-15.341],[124.848,-15.353],[124.979,-15.41],[125.003,-15.448],[124.952,-15.475],[124.953,-15.489],[124.996,-15.477],[124.987,-15.506],[125.0,-15.51],[125.018,-15.471],[125.002,-15.518],[125.017,-15.545],[125.047,-15.474],[125.089,-15.463],[125.225,-15.572],[125.421,-15.696],[125.07,-15.44],[125.091,-15.355],[125.164,-15.331],[125.158,-15.306],[125.089,-15.338],[125.119,-15.256],[125.1,-15.286],[125.09,-15.248],[125.073,-15.254],[125.081,-15.314],[125.031,-15.275],[124.979,-15.329],[124.898,-15.34],[124.876,-15.302],[124.927,-15.229],[124.969,-15.212],[125.006,-15.242],[125.056,-15.164],[125.014,-15.155],[124.993,-15.198],[124.995,-15.162],[124.97,-15.164],[124.971,-15.208],[124.935,-15.187],[124.944,-15.213],[124.876,-15.262],[124.892,-15.23],[124.869,-15.244],[124.864,-15.195],[124.896,-15.173],[124.838,-15.183],[124.834,-15.158],[124.91,-15.107],[124.974,-15.135],[125.011,-15.094],[125.03,-15.113],[125.048,-15.077],[125.012,-14.983],[125.056,-15.0],[125.074,-14.976],[125.072,-15.065],[125.126,-15.044],[125.163,-15.151],[125.281,-15.098],[125.282,-15.144],[125.335,-15.163],[125.481,-15.155],[125.358,-15.108],[125.402,-15.085],[125.375,-15.053],[125.482,-14.999],[125.421,-15.022],[125.409,-14.999],[125.386,-15.033],[125.365,-14.991],[125.286,-14.999],[125.305,-14.962],[125.254,-14.978],[125.258,-14.944],[125.214,-14.97],[125.256,-14.9],[125.295,-14.938],[125.334,-14.881],[125.287,-14.853],[125.236,-14.868],[125.244,-14.832],[125.21,-14.865],[125.184,-14.827],[125.205,-14.791],[125.167,-14.791],[125.141,-14.748],[125.189,-14.747],[125.213,-14.669],[125.262,-14.693],[125.261,-14.658],[125.308,-14.65],[125.288,-14.623],[125.204,-14.651],[125.257,-14.63],[125.3,-14.558],[125.326,-14.584],[125.348,-14.565],[125.364,-14.506],[125.355,-14.584],[125.41,-14.546],[125.43,-14.641],[125.437,-14.595],[125.463,-14.605],[125.452,-14.579],[125.483,-14.568],[125.467,-14.536],[125.491,-14.56],[125.489,-14.519],[125.52,-14.5],[125.561,-14.515],[125.535,-14.564],[125.599,-14.563],[125.572,-14.548],[125.614,-14.511],[125.588,-14.506],[125.622,-14.413],[125.589,-14.37],[125.599,-14.274],[125.574,-14.262],[125.608,-14.262],[125.596,-14.237],[125.629,-14.234],[125.642,-14.266],[125.649,-14.243],[125.703,-14.304],[125.73,-14.281],[125.697,-14.325],[125.726,-14.342],[125.67,-14.332],[125.652,-14.386],[125.689,-14.499],[125.647,-14.648],[125.709,-14.487],[125.774,-14.48],[125.806,-14.444],[125.803,-14.479],[125.859,-14.475],[125.817,-14.498],[125.85,-14.536],[125.831,-14.585],[125.91,-14.662],[125.937,-14.643],[125.903,-14.576],[125.921,-14.537],[125.965,-14.519],[126.0,-14.555],[126.015,-14.519],[126.051,-14.53],[126.02,-14.411],[125.985,-14.42],[125.977,-14.393],[126.088,-14.351],[126.053,-14.254],[126.133,-14.231],[126.16,-14.176],[126.141,-14.158],[126.17,-14.146],[126.104,-14.076],[126.033,-14.095],[125.993,-14.068],[125.976,-14.04],[125.984,-13.99],[126.01,-14.065],[126.027,-14.017],[126.056,-14.027],[126.022,-13.997],[126.038,-13.982],[126.103,-14.041],[126.107,-13.977],[126.011,-13.926],[126.063,-13.943],[126.095,-13.895],[126.086,-13.946],[126.132,-13.944],[126.158,-13.915],[126.126,-13.964],[126.159,-13.97],[126.131,-13.987],[126.11,-14.028],[126.187,-13.968],[126.216,-13.968],[126.144,-14.015],[126.201,-14.001],[126.217,-14.043],[126.16,-14.058],[126.151,-14.08],[126.192,-14.066],[126.17,-14.082],[126.166,-14.114],[126.214,-14.076],[126.186,-14.167],[126.243,-14.176],[126.216,-14.237],[126.254,-14.239],[126.273,-14.207],[126.27,-14.237],[126.301,-14.234],[126.361,-14.19],[126.298,-14.139],[126.314,-14.097],[126.345,-14.098],[126.334,-14.05],[126.394,-14.052],[126.397,-14.015],[126.438,-13.983],[126.485,-13.996],[126.537,-13.934],[126.566,-13.955],[126.449,-14.084],[126.479,-14.11],[126.525,-14.082],[126.499,-14.13],[126.515,-14.157],[126.57,-14.14],[126.565,-14.217],[126.575,-14.229],[126.602,-14.236],[126.607,-14.18],[126.651,-14.173],[126.645,-14.077],[126.689,-14.091],[126.694,-14.135],[126.723,-14.065],[126.763,-14.05],[126.754,-14.011],[126.702,-14.021],[126.706,-13.973],[126.729,-13.997],[126.751,-13.972],[126.81,-13.998],[126.838,-13.971],[126.882,-13.999],[126.905,-13.985],[126.839,-13.928],[126.806,-13.93],[126.743,-13.792],[126.767,-13.776],[126.819,-13.769],[126.842,-13.817],[126.873,-13.799],[126.851,-13.758],[126.922,-13.776],[126.944,-13.768],[126.914,-13.741],[126.963,-13.742],[127.031,-13.804],[127.006,-13.824],[127.047,-13.806],[127.044,-13.849],[127.081,-13.84],[127.061,-13.908],[127.103,-13.884],[127.094,-13.927],[127.143,-13.982],[127.191,-13.904],[127.208,-13.974],[127.247,-13.9],[127.318,-13.961],[127.346,-13.955],[127.322,-13.915],[127.347,-13.907],[127.411,-13.961],[127.43,-13.943],[127.467,-14.001],[127.453,-14.059],[127.483,-14.085],[127.524,-14.069],[127.524,-14.12],[127.557,-14.105],[127.67,-14.191],[127.683,-14.243],[127.78,-14.333],[127.761,-14.367],[127.782,-14.351],[127.788,-14.388],[127.828,-14.403],[127.82,-14.441],[127.85,-14.484],[127.88,-14.471],[127.949,-14.524],[127.927,-14.558],[127.953,-14.586],[127.993,-14.556],[128.069,-14.65],[128.222,-14.721],[128.218,-14.755],[128.184,-14.744],[128.192,-14.839],[128.119,-14.861],[128.139,-14.871],[128.075,-15.104],[128.093,-15.281],[128.04,-15.293],[128.089,-15.39],[128.052,-15.479],[128.019,-15.494],[127.999,-15.518],[128.068,-15.492],[128.114,-15.428],[128.128,-15.292],[128.1,-15.25],[128.128,-15.184],[128.258,-15.306],[128.292,-15.46],[128.327,-15.505],[128.342,-15.501],[128.299,-15.46],[128.301,-15.32],[128.24,-15.248],[128.194,-15.094],[128.228,-15.003],[128.265,-14.983],[128.289,-14.974],[128.331,-15.035],[128.292,-14.967],[128.314,-14.926],[128.362,-15.067],[128.358,-14.991],[128.41,-15.032],[128.349,-14.968],[128.358,-14.885],[128.449,-15.002],[128.422,-14.882],[128.519,-15.015],[128.467,-14.889],[128.381,-14.823],[128.393,-14.804],[128.55,-14.768],[128.587,-14.808],[128.679,-14.796],[128.788,-14.86],[129.001,-14.879],[129.001,-31.687],[128.314,-31.979],[127.326,-32.257],[126.673,-32.308],[126.203,-32.232],[125.951,-32.291],[125.532,-32.549],[125.026,-32.729],[124.814,-32.873],[124.394,-32.949],[124.239,-33.018],[124.101,-33.176],[123.998,-33.426],[123.976,-33.559],[123.875,-33.599],[123.878,-33.633],[123.774,-33.698],[123.764,-33.795],[123.573,-33.888],[123.534,-33.94],[123.371,-33.896],[123.287,-33.98],[123.163,-34.017],[123.134,-33.904],[123.023,-33.857],[122.976,-33.902],[122.619,-33.893],[122.572,-33.961],[122.558,-33.937],[122.51,-33.953],[122.364,-33.914],[122.275,-33.959],[122.277,-34.001],[122.114,-34.017],[122.085,-33.903],[122.001,-33.829],[121.915,-33.838],[121.9,-33.879],[121.79,-33.909],[121.695,-33.861],[121.645,-33.898],[121.547,-33.828],[121.362,-33.815],[121.199,-33.845],[121.177,-33.878],[121.1,-33.849],[121.008,-33.873],[120.869,-33.856],[120.813,-33.893],[120.593,-33.886],[120.437,-33.972],[120.231,-33.932],[120.127,-33.954],[120.042,-33.923],[119.944,-33.978],[119.816,-33.983],[119.597,-34.135],[119.504,-34.288],[119.457,-34.289],[119.503,-34.29],[119.507,-34.359],[119.576,-34.387],[119.503,-34.411],[119.483,-34.375],[119.416,-34.373],[119.391,-34.419],[119.419,-34.459],[119.382,-34.485],[119.346,-34.446],[119.29,-34.452],[119.254,-34.535],[119.222,-34.531],[119.218,-34.498],[119.069,-34.459],[118.912,-34.463],[118.914,-34.503],[118.812,-34.509],[118.755,-34.546],[118.745,-34.594],[118.782,-34.609],[118.722,-34.657],[118.44,-34.761],[118.4,-34.824],[118.397,-34.877],[118.428,-34.899],[118.403,-34.917],[118.334,-34.891],[118.175,-34.94],[118.173,-34.968],[118.211,-34.979],[118.187,-35.025],[118.109,-34.986],[118.035,-35.02],[117.962,-35.013],[117.977,-34.952],[117.949,-34.944],[117.92,-35.036],[117.848,-35.045],[117.909,-35.084],[117.92,-35.041],[117.944,-35.092],[118.002,-35.088],[118.021,-35.108],[117.899,-35.123],[117.686,-35.043],[117.645,-35.062],[117.64,-35.134],[117.611,-35.133],[117.549,-35.083],[117.485,-35.089],[117.332,-35.023],[117.396,-34.998],[117.466,-35.021],[117.455,-34.967],[117.369,-34.969],[117.334,-34.994],[117.326,-35.044],[117.195,-35.017],[117.15,-35.061],[116.957,-35.019],[116.921,-35.064],[116.768,-35.015],[116.63,-35.061],[116.533,-35.004],[116.482,-35.016],[116.261,-34.88],[116.002,-34.842],[115.947,-34.721],[115.578,-34.422],[115.345,-34.316],[115.169,-34.322],[115.202,-34.278],[115.177,-34.266],[115.144,-34.289],[115.166,-34.357],[115.134,-34.376],[115.024,-34.253],[115.039,-34.198],[114.991,-34.098],[114.976,-33.864],[115.0,-33.794],[114.975,-33.698],[115.028,-33.634],[115.004,-33.531],[115.207,-33.651],[115.367,-33.639],[115.574,-33.454],[115.636,-33.309],[115.666,-33.322],[115.688,-33.109],[115.608,-32.667],[115.628,-32.6],[115.711,-32.521],[115.718,-32.558],[115.641,-32.619],[115.712,-32.788],[115.727,-32.753],[115.666,-32.616],[115.747,-32.646],[115.778,-32.596],[115.719,-32.564],[115.75,-32.44],[115.713,-32.37],[115.743,-32.334],[115.685,-32.266],[115.737,-32.27],[115.775,-32.194],[115.732,-32.056],[115.846,-32.002],[115.861,-32.046],[115.845,-31.965],[115.884,-31.969],[115.886,-31.941],[115.899,-31.954],[115.915,-31.951],[115.91,-31.936],[115.936,-31.931],[115.941,-31.92],[115.951,-31.923],[115.964,-31.908],[115.959,-31.895],[115.974,-31.894],[115.958,-31.895],[115.951,-31.922],[115.941,-31.92],[115.909,-31.935],[115.914,-31.95],[115.885,-31.938],[115.883,-31.967],[115.843,-31.963],[115.804,-32.003],[115.774,-31.989],[115.78,-32.019],[115.724,-32.054],[115.751,-32.022],[115.752,-31.848],[115.686,-31.654],[115.441,-31.278],[115.313,-30.973],[115.19,-30.825],[115.058,-30.51],[115.02,-30.317],[115.043,-30.274],[114.994,-30.231],[115.002,-30.132],[114.955,-30.049],[114.983,-29.911],[114.958,-29.684],[114.998,-29.494],[114.872,-29.117],[114.576,-28.785],[114.615,-28.763],[114.613,-28.665],[114.534,-28.494],[114.323,-28.233],[114.175,-28.111],[114.105,-27.85],[114.182,-27.68],[114.173,-27.659],[114.163,-27.707],[114.104,-27.503],[113.965,-27.231],[113.584,-26.671],[113.297,-26.4],[113.278,-26.294],[113.156,-26.152],[113.261,-26.191],[113.27,-26.242],[113.299,-26.016],[113.327,-26.337],[113.356,-26.331],[113.368,-26.399],[113.394,-26.393]],[[113.395,-26.393],[113.4,-26.418],[113.398,-26.396],[113.395,-26.393]],[[117.977,-34.952],[117.981,-34.94],[117.974,-34.939],[117.977,-34.952]],[[125.035,-15.518],[125.04,-15.522],[125.044,-15.519],[125.035,-15.518]],[[121.795,-18.52],[121.788,-18.538],[121.798,-18.53],[121.795,-18.52]],[[118.851,-20.289],[118.855,-20.291],[118.86,-20.282],[118.851,-20.289]],[[117.55,-20.718],[117.542,-20.736],[117.556,-20.731],[117.55,-20.718]],[[117.184,-20.673],[117.172,-20.655],[117.168,-20.682],[117.184,-20.673]],[[116.986,-20.672],[116.987,-20.679],[116.987,-20.672],[116.986,-20.672]],[[116.676,-20.733],[116.685,-20.75],[116.686,-20.737],[116.676,-20.733]],[[116.652,-20.736],[116.648,-20.744],[116.658,-20.74],[116.652,-20.736]],[[116.648,-20.745],[116.647,-20.746],[116.654,-20.749],[116.648,-20.745]],[[116.636,-20.742],[116.63,-20.751],[116.64,-20.753],[116.636,-20.742]],[[116.468,-20.827],[116.474,-20.831],[116.481,-20.826],[116.468,-20.827]],[[116.485,-20.842],[116.478,-20.852],[116.485,-20.844],[116.495,-20.851],[116.485,-20.842]],[[116.106,-21.038],[116.099,-21.052],[116.106,-21.04],[116.106,-21.038]],[[115.865,-21.193],[115.852,-21.203],[115.86,-21.204],[115.865,-21.193]],[[115.837,-21.252],[115.844,-21.253],[115.84,-21.244],[115.837,-21.252]],[[115.796,-21.265],[115.796,-21.277],[115.799,-21.27],[115.796,-21.265]],[[115.746,-21.281],[115.739,-21.285],[115.749,-21.289],[115.746,-21.281]],[[115.33,-21.587],[115.334,-21.596],[115.342,-21.596],[115.33,-21.587]],[[113.619,-26.521],[113.622,-26.539],[113.626,-26.524],[113.619,-26.521]],[[115.917,-21.093],[115.915,-21.093],[115.912,-21.102],[115.917,-21.093]],[[116.54,-20.767],[116.542,-20.778],[116.542,-20.766],[116.54,-20.767]],[[117.173,-20.631],[117.166,-20.628],[117.165,-20.635],[117.173,-20.631]],[[117.34,-20.759],[117.32,-20.759],[117.332,-20.771],[117.34,-20.759]],[[122.293,-17.119],[122.302,-17.121],[122.303,-17.112],[122.293,-17.119]],[[124.462,-15.798],[124.462,-15.785],[124.458,-15.783],[124.462,-15.798]],[[115.889,-32.018],[115.883,-32.024],[115.893,-32.021],[115.889,-32.018]]],[[[125.216,-14.496],[125.18,-14.56],[125.214,-14.607],[125.152,-14.656],[125.136,-14.628],[125.108,-14.643],[125.096,-14.546],[125.152,-14.566],[125.118,-14.494],[125.165,-14.44],[125.216,-14.496]]],[[[124.655,-15.397],[124.525,-15.448],[124.514,-15.426],[124.541,-15.433],[124.591,-15.369],[124.555,-15.389],[124.528,-15.357],[124.535,-15.383],[124.507,-15.398],[124.512,-15.365],[124.498,-15.37],[124.476,-15.405],[124.461,-15.355],[124.492,-15.358],[124.491,-15.321],[124.517,-15.334],[124.498,-15.308],[124.515,-15.314],[124.536,-15.304],[124.495,-15.292],[124.571,-15.245],[124.558,-15.255],[124.556,-15.314],[124.59,-15.312],[124.58,-15.343],[124.655,-15.397]]],[[[115.477,-20.734],[115.421,-20.864],[115.321,-20.892],[115.322,-20.808],[115.433,-20.667],[115.469,-20.68],[115.477,-20.734]]],[[[113.237,-26.104],[113.216,-26.163],[112.967,-25.783],[112.921,-25.588],[112.971,-25.48],[113.023,-25.499],[113.009,-25.561],[113.11,-25.868],[113.156,-25.888],[113.126,-25.922],[113.137,-25.977],[113.168,-25.943],[113.237,-26.104]]]]}},{"type":"Feature","properties":{"STATE_NAME":"Tasmania"},"geometry":{"type":"MultiPolygon","coordinates":[[[[148.482,-40.435],[148.351,-40.493],[148.31,-40.427],[148.227,-40.466],[148.196,-40.436],[148.086,-40.457],[147.984,-40.403],[148.082,-40.339],[148.192,-40.356],[148.211,-40.318],[148.267,-40.341],[148.33,-40.291],[148.407,-40.378],[148.451,-40.377],[148.482,-40.435]]],[[[144.695,-41.048],[144.746,-41.056],[144.696,-41.048],[144.684,-41.038],[144.661,-41.053],[144.607,-41.009],[144.633,-40.994],[144.612,-40.936],[144.684,-40.907],[144.712,-40.858],[144.71,-40.761],[144.678,-40.717],[144.726,-40.642],[144.766,-40.744],[144.786,-40.708],[144.924,-40.764],[144.979,-40.743],[145.121,-40.838],[145.167,-40.819],[145.11,-40.794],[145.259,-40.806],[145.26,-40.712],[145.309,-40.764],[145.289,-40.766],[145.269,-40.811],[145.294,-40.827],[145.28,-40.794],[145.321,-40.85],[145.392,-40.85],[145.446,-40.871],[145.435,-40.894],[145.512,-40.854],[145.56,-40.917],[145.729,-40.945],[145.741,-40.985],[145.696,-40.975],[145.836,-41.057],[145.877,-41.037],[145.923,-41.078],[145.958,-41.063],[146.12,-41.119],[146.167,-41.147],[146.152,-41.162],[146.248,-41.157],[146.251,-41.197],[146.255,-41.152],[146.333,-41.157],[146.316,-41.183],[146.357,-41.158],[146.348,-41.217],[146.389,-41.238],[146.37,-41.167],[146.465,-41.16],[146.532,-41.118],[146.562,-41.167],[146.548,-41.168],[146.54,-41.179],[146.573,-41.189],[146.565,-41.251],[146.585,-41.205],[146.594,-41.251],[146.607,-41.259],[146.578,-41.185],[146.61,-41.158],[146.564,-41.146],[146.708,-41.064],[146.768,-41.079],[146.82,-41.138],[146.763,-41.15],[146.771,-41.165],[146.818,-41.145],[146.839,-41.2],[146.834,-41.163],[146.923,-41.17],[146.898,-41.203],[146.946,-41.26],[146.975,-41.252],[146.971,-41.309],[147.034,-41.356],[147.077,-41.341],[147.069,-41.354],[147.074,-41.384],[147.123,-41.41],[147.112,-41.422],[147.122,-41.444],[147.143,-41.429],[147.146,-41.417],[147.156,-41.417],[147.155,-41.416],[147.144,-41.417],[147.127,-41.432],[147.128,-41.411],[147.079,-41.366],[147.089,-41.354],[147.074,-41.33],[146.978,-41.309],[147.015,-41.276],[146.945,-41.207],[146.912,-41.212],[146.965,-41.19],[146.9,-41.137],[146.828,-41.136],[146.787,-41.054],[146.875,-41.019],[146.959,-41.027],[147.021,-40.98],[147.158,-41.031],[147.28,-40.942],[147.346,-40.939],[147.355,-40.982],[147.384,-40.98],[147.401,-41.011],[147.435,-41.012],[147.397,-41.003],[147.491,-40.979],[147.595,-40.849],[147.67,-40.821],[147.752,-40.876],[147.756,-40.865],[147.822,-40.887],[147.904,-40.878],[147.887,-40.864],[147.959,-40.765],[147.939,-40.74],[148.033,-40.751],[148.175,-40.83],[148.115,-40.814],[148.126,-40.836],[148.174,-40.839],[148.178,-40.821],[148.223,-40.846],[148.349,-40.993],[148.297,-41.062],[148.294,-41.029],[148.249,-41.051],[148.298,-41.064],[148.27,-41.126],[148.285,-41.169],[148.253,-41.191],[148.272,-41.181],[148.279,-41.23],[148.338,-41.26],[148.308,-41.302],[148.282,-41.277],[148.277,-41.315],[148.236,-41.323],[148.272,-41.34],[148.359,-41.28],[148.279,-41.372],[148.271,-41.502],[148.264,-41.477],[148.249,-41.486],[148.317,-41.575],[148.284,-41.72],[148.305,-41.748],[148.264,-41.807],[148.324,-41.917],[148.285,-42.039],[148.341,-42.103],[148.298,-42.166],[148.357,-42.18],[148.346,-42.224],[148.293,-42.282],[148.251,-42.23],[148.292,-42.192],[148.259,-42.165],[148.298,-42.126],[148.248,-42.117],[148.221,-42.069],[148.157,-42.074],[148.243,-41.988],[148.197,-42.021],[148.163,-41.998],[148.133,-42.044],[148.165,-42.052],[148.093,-42.081],[148.235,-42.098],[148.124,-42.092],[148.047,-42.118],[148.085,-42.126],[148.084,-42.168],[148.014,-42.239],[148.0,-42.31],[147.978,-42.307],[147.931,-42.343],[147.962,-42.357],[148.018,-42.315],[147.977,-42.441],[148.01,-42.441],[147.989,-42.498],[148.01,-42.51],[147.949,-42.553],[147.924,-42.497],[147.897,-42.524],[147.913,-42.549],[147.875,-42.555],[147.946,-42.606],[147.947,-42.728],[147.879,-42.77],[147.884,-42.846],[147.865,-42.815],[147.845,-42.874],[147.832,-42.866],[147.791,-42.903],[147.669,-42.902],[147.64,-42.88],[147.656,-42.882],[147.684,-42.864],[147.701,-42.872],[147.684,-42.863],[147.606,-42.869],[147.622,-42.845],[147.597,-42.813],[147.603,-42.798],[147.594,-42.782],[147.585,-42.778],[147.592,-42.801],[147.539,-42.772],[147.528,-42.805],[147.435,-42.774],[147.481,-42.827],[147.513,-42.811],[147.613,-42.846],[147.504,-42.864],[147.495,-42.911],[147.531,-42.931],[147.554,-42.986],[147.521,-43.021],[147.419,-43.05],[147.392,-42.976],[147.409,-42.963],[147.43,-43.028],[147.469,-43.027],[147.478,-42.982],[147.446,-42.965],[147.491,-42.927],[147.479,-42.906],[147.409,-42.939],[147.405,-42.884],[147.352,-42.876],[147.347,-42.835],[147.282,-42.801],[147.293,-42.79],[147.263,-42.73],[147.257,-42.757],[147.199,-42.725],[147.115,-42.773],[147.198,-42.74],[147.283,-42.79],[147.256,-42.815],[147.322,-42.832],[147.332,-42.9],[147.361,-42.914],[147.324,-43.006],[147.344,-43.052],[147.314,-43.059],[147.285,-43.008],[147.265,-43.021],[147.256,-43.073],[147.301,-43.088],[147.246,-43.122],[147.261,-43.224],[147.243,-43.268],[147.168,-43.283],[147.151,-43.241],[147.089,-43.243],[147.118,-43.211],[147.083,-43.163],[147.062,-43.225],[146.984,-43.189],[147.045,-43.047],[147.03,-43.059],[146.972,-43.139],[146.981,-43.159],[146.96,-43.156],[146.95,-43.164],[147.1,-43.29],[147.065,-43.333],[146.982,-43.33],[147.059,-43.353],[147.018,-43.443],[146.951,-43.447],[146.924,-43.416],[146.916,-43.447],[147.002,-43.48],[146.942,-43.478],[146.944,-43.512],[146.978,-43.494],[146.917,-43.546],[146.901,-43.516],[146.877,-43.558],[146.921,-43.6],[146.871,-43.639],[146.827,-43.643],[146.831,-43.615],[146.785,-43.6],[146.705,-43.633],[146.599,-43.562],[146.608,-43.55],[146.559,-43.465],[146.551,-43.51],[146.596,-43.543],[146.345,-43.513],[146.29,-43.545],[146.273,-43.498],[146.216,-43.486],[146.21,-43.535],[146.148,-43.501],[146.11,-43.557],[146.079,-43.541],[146.031,-43.571],[146.043,-43.509],[145.997,-43.407],[145.921,-43.381],[145.977,-43.356],[145.994,-43.394],[145.987,-43.329],[146.084,-43.372],[146.058,-43.344],[146.131,-43.355],[146.127,-43.374],[146.14,-43.407],[146.144,-43.409],[146.135,-43.377],[146.177,-43.382],[146.155,-43.363],[146.223,-43.389],[146.232,-43.322],[146.176,-43.327],[146.168,-43.291],[146.112,-43.348],[146.064,-43.289],[146.059,-43.334],[146.004,-43.335],[145.953,-43.281],[145.98,-43.235],[145.917,-43.211],[145.928,-43.245],[145.862,-43.273],[145.924,-43.267],[145.927,-43.3],[145.841,-43.315],[145.808,-43.209],[145.722,-43.136],[145.736,-43.117],[145.665,-43.096],[145.682,-43.05],[145.648,-43.049],[145.591,-42.973],[145.495,-42.992],[145.488,-42.913],[145.383,-42.769],[145.366,-42.657],[145.263,-42.622],[145.304,-42.571],[145.253,-42.522],[145.245,-42.406],[145.196,-42.328],[145.214,-42.278],[145.166,-42.197],[145.207,-42.2],[145.253,-42.288],[145.318,-42.285],[145.31,-42.32],[145.453,-42.404],[145.447,-42.437],[145.474,-42.526],[145.458,-42.435],[145.492,-42.422],[145.531,-42.45],[145.555,-42.44],[145.608,-42.453],[145.618,-42.445],[145.513,-42.435],[145.558,-42.357],[145.512,-42.374],[145.494,-42.322],[145.481,-42.364],[145.365,-42.252],[145.372,-42.202],[145.346,-42.207],[145.373,-42.195],[145.334,-42.152],[145.268,-42.202],[145.29,-42.197],[145.29,-42.227],[145.223,-42.219],[145.264,-42.112],[145.204,-41.937],[145.124,-41.9],[144.985,-41.736],[144.911,-41.691],[145.005,-41.618],[145.05,-41.626],[145.035,-41.617],[145.051,-41.608],[145.051,-41.601],[144.975,-41.629],[144.921,-41.668],[144.84,-41.506],[144.746,-41.421],[144.79,-41.395],[144.684,-41.235],[144.659,-41.057],[144.684,-41.038],[144.695,-41.048]],[[144.779,-41.08],[144.775,-41.084],[144.781,-41.08],[144.779,-41.08]],[[144.791,-41.069],[144.792,-41.069],[144.795,-41.055],[144.791,-41.069]],[[144.796,-41.056],[144.799,-41.06],[144.799,-41.058],[144.796,-41.056]],[[144.791,-41.086],[144.791,-41.087],[144.799,-41.09],[144.791,-41.086]],[[145.104,-41.656],[145.062,-41.648],[145.081,-41.657],[145.104,-41.656]],[[145.389,-42.197],[145.411,-42.198],[145.415,-42.197],[145.389,-42.197]],[[145.431,-42.19],[145.449,-42.2],[145.47,-42.197],[145.472,-42.185],[145.487,-42.187],[145.5,-42.176],[145.431,-42.19]],[[146.157,-43.414],[146.166,-43.419],[146.169,-43.411],[146.157,-43.414]],[[147.529,-42.985],[147.516,-42.952],[147.509,-42.967],[147.529,-42.985]],[[148.301,-41.251],[148.288,-41.25],[148.288,-41.257],[148.301,-41.251]],[[147.206,-41.0],[147.203,-41.0],[147.203,-41.009],[147.206,-41.0]],[[146.152,-41.177],[146.129,-41.152],[146.121,-41.156],[146.152,-41.177]],[[145.121,-40.839],[145.091,-40.848],[145.12,-40.841],[145.121,-40.839]],[[148.246,-41.47],[148.244,-41.467],[148.232,-41.453],[148.246,-41.47]],[[148.23,-41.443],[148.228,-41.432],[148.229,-41.443],[148.23,-41.443]],[[148.22,-41.446],[148.216,-41.446],[148.219,-41.447],[148.22,-41.446]],[[148.204,-41.444],[148.205,-41.441],[148.198,-41.442],[148.204,-41.444]],[[148.074,-42.065],[148.076,-42.063],[148.064,-42.068],[148.074,-42.065]],[[147.002,-43.017],[147.056,-43.04],[147.037,-43.025],[147.034,-43.011],[147.002,-43.017]],[[146.908,-43.432],[146.908,-43.432],[146.906,-43.421],[146.908,-43.432]],[[145.918,-43.21],[145.937,-43.191],[145.921,-43.163],[145.94,-43.15],[145.92,-43.161],[145.927,-43.189],[145.909,-43.187],[145.918,-43.21]],[[145.673,-42.443],[145.626,-42.446],[145.672,-42.445],[145.665,-42.527],[145.671,-42.562],[145.718,-42.59],[145.741,-42.591],[145.672,-42.561],[145.673,-42.443]],[[145.253,-42.019],[145.253,-42.019],[145.268,-42.023],[145.253,-42.019]]],[[[148.334,-40.208],[148.283,-40.231],[148.259,-40.21],[148.21,-40.211],[148.122,-40.274],[148.046,-40.25],[148.007,-40.105],[147.964,-40.075],[147.954,-40.099],[147.934,-40.035],[147.859,-40.023],[147.907,-39.976],[147.88,-39.907],[147.805,-39.917],[147.748,-39.874],[147.844,-39.837],[147.87,-39.787],[147.848,-39.751],[147.963,-39.727],[147.956,-39.732],[147.956,-39.745],[147.967,-39.773],[147.991,-39.779],[147.961,-39.73],[148.177,-39.952],[148.291,-39.965],[148.286,-40.068],[148.223,-40.121],[148.279,-40.116],[148.288,-40.081],[148.334,-40.208]]],[[[148.169,-42.649],[148.081,-42.662],[148.093,-42.721],[148.014,-42.742],[148.066,-42.677],[148.009,-42.661],[148.067,-42.571],[148.12,-42.585],[148.169,-42.649]]],[[[148.012,-43.222],[147.897,-43.191],[147.863,-43.108],[147.846,-43.154],[147.87,-43.152],[147.875,-43.206],[147.844,-43.188],[147.786,-43.238],[147.712,-43.194],[147.685,-43.139],[147.742,-43.095],[147.627,-43.074],[147.619,-43.007],[147.679,-42.992],[147.679,-42.935],[147.731,-42.957],[147.718,-43.028],[147.74,-43.014],[147.814,-43.061],[147.845,-43.031],[147.86,-43.057],[147.872,-43.023],[147.925,-43.016],[147.847,-43.013],[147.857,-42.983],[147.811,-42.962],[147.866,-42.947],[147.815,-42.938],[147.803,-42.893],[147.908,-42.909],[147.861,-42.875],[147.892,-42.843],[147.94,-42.877],[147.971,-42.864],[148.0,-42.964],[147.926,-43.021],[147.981,-43.107],[147.954,-43.137],[148.006,-43.139],[147.964,-43.192],[148.012,-43.222]]],[[[147.203,-43.437],[147.183,-43.489],[147.147,-43.497],[147.094,-43.428],[147.122,-43.416],[147.18,-43.458],[147.179,-43.353],[147.213,-43.382],[147.234,-43.364],[147.222,-43.34],[147.291,-43.242],[147.306,-43.297],[147.358,-43.256],[147.341,-43.219],[147.383,-43.207],[147.379,-43.176],[147.276,-43.167],[147.31,-43.134],[147.356,-43.141],[147.361,-43.114],[147.307,-43.114],[147.351,-43.064],[147.433,-43.232],[147.322,-43.304],[147.334,-43.368],[147.367,-43.35],[147.379,-43.39],[147.295,-43.516],[147.247,-43.493],[147.246,-43.44],[147.203,-43.437]],[[147.202,-43.419],[147.242,-43.426],[147.242,-43.414],[147.202,-43.419]]],[[[144.929,-40.622],[144.928,-40.577],[144.937,-40.65],[144.968,-40.659],[144.955,-40.629],[145.068,-40.714],[144.977,-40.708],[144.894,-40.74],[144.872,-40.679],[144.929,-40.622]]],[[[144.138,-39.934],[144.105,-40.044],[143.95,-40.113],[143.926,-40.158],[143.875,-40.117],[143.858,-40.062],[143.89,-40.054],[143.892,-39.994],[143.833,-39.916],[143.867,-39.833],[143.844,-39.716],[143.923,-39.669],[143.946,-39.58],[144.11,-39.67],[144.101,-39.752],[144.114,-39.819],[144.093,-39.792],[144.107,-39.82],[144.121,-39.819],[144.111,-39.799],[144.128,-39.821],[144.105,-39.891],[144.138,-39.934]]]]}},{"type":"Feature","properties":{"STATE_NAME":"Northern Territory"},"geometry":{"type":"MultiPolygon","coordinates":[[[[130.518,-12.731],[130.521,-12.703],[130.536,-12.719],[130.583,-12.719],[130.57,-12.744],[130.608,-12.72],[130.625,-12.769],[130.621,-12.705],[130.689,-12.751],[130.739,-12.711],[130.69,-12.72],[130.702,-12.69],[130.674,-12.708],[130.616,-12.669],[130.586,-12.684],[130.546,-12.634],[130.583,-12.623],[130.587,-12.66],[130.609,-12.604],[130.641,-12.644],[130.604,-12.578],[130.567,-12.582],[130.606,-12.501],[130.581,-12.463],[130.623,-12.448],[130.578,-12.407],[130.619,-12.381],[130.765,-12.437],[130.727,-12.526],[130.779,-12.475],[130.774,-12.546],[130.729,-12.582],[130.732,-12.597],[130.779,-12.559],[130.767,-12.602],[130.777,-12.6],[130.78,-12.619],[130.792,-12.622],[130.81,-12.54],[130.814,-12.582],[130.841,-12.555],[130.868,-12.601],[130.847,-12.613],[130.869,-12.612],[130.87,-12.659],[130.88,-12.631],[130.899,-12.662],[130.908,-12.656],[130.882,-12.606],[130.945,-12.638],[130.967,-12.63],[130.885,-12.575],[130.878,-12.552],[130.901,-12.556],[130.859,-12.507],[130.908,-12.541],[130.923,-12.509],[130.954,-12.555],[130.947,-12.471],[130.897,-12.488],[130.917,-12.458],[130.85,-12.439],[130.851,-12.468],[130.821,-12.462],[130.816,-12.407],[130.896,-12.33],[131.013,-12.367],[131.009,-12.356],[131.055,-12.348],[131.03,-12.346],[131.061,-12.332],[131.028,-12.305],[131.013,-12.323],[131.03,-12.232],[130.995,-12.186],[131.031,-12.146],[131.169,-12.173],[131.222,-12.227],[131.208,-12.239],[131.206,-12.27],[131.225,-12.285],[131.212,-12.24],[131.251,-12.22],[131.229,-12.207],[131.297,-12.043],[131.323,-12.193],[131.427,-12.275],[131.683,-12.285],[131.879,-12.215],[131.939,-12.273],[132.07,-12.304],[132.238,-12.17],[132.278,-12.224],[132.353,-12.199],[132.389,-12.236],[132.442,-12.146],[132.556,-12.086],[132.629,-12.085],[132.655,-11.89],[132.637,-11.822],[132.581,-11.786],[132.649,-11.722],[132.655,-11.686],[132.595,-11.73],[132.5,-11.682],[132.507,-11.636],[132.558,-11.636],[132.565,-11.667],[132.617,-11.655],[132.548,-11.609],[132.553,-11.555],[132.494,-11.483],[132.353,-11.441],[132.239,-11.455],[132.114,-11.54],[132.034,-11.482],[132.059,-11.432],[131.942,-11.4],[131.989,-11.373],[131.966,-11.342],[131.917,-11.358],[131.944,-11.32],[131.86,-11.293],[131.763,-11.316],[131.801,-11.295],[131.794,-11.268],[131.855,-11.277],[131.815,-11.212],[131.879,-11.235],[131.882,-11.182],[131.93,-11.26],[131.961,-11.253],[131.993,-11.124],[132.046,-11.199],[132.076,-11.18],[132.084,-11.232],[132.114,-11.211],[132.1,-11.329],[132.123,-11.349],[132.137,-11.296],[132.17,-11.42],[132.176,-11.397],[132.208,-11.413],[132.19,-11.351],[132.222,-11.37],[132.236,-11.34],[132.198,-11.301],[132.173,-11.323],[132.202,-11.227],[132.136,-11.122],[132.187,-11.13],[132.284,-11.277],[132.265,-11.175],[132.322,-11.166],[132.333,-11.116],[132.382,-11.208],[132.374,-11.295],[132.451,-11.218],[132.507,-11.272],[132.487,-11.299],[132.51,-11.293],[132.514,-11.35],[132.547,-11.342],[132.622,-11.41],[132.669,-11.516],[132.733,-11.519],[132.842,-11.395],[132.896,-11.426],[132.909,-11.385],[132.865,-11.34],[132.918,-11.332],[133.077,-11.521],[133.106,-11.633],[133.191,-11.729],[133.282,-11.741],[133.253,-11.731],[133.343,-11.694],[133.354,-11.718],[133.308,-11.739],[133.321,-11.77],[133.37,-11.776],[133.403,-11.732],[133.399,-11.768],[133.459,-11.802],[133.534,-11.76],[133.53,-11.813],[133.602,-11.809],[133.611,-11.843],[133.692,-11.794],[133.67,-11.774],[133.738,-11.783],[133.794,-11.725],[133.916,-11.742],[133.94,-11.77],[133.847,-11.813],[133.83,-11.865],[133.908,-11.928],[134.031,-11.855],[134.078,-11.898],[134.075,-11.942],[134.127,-11.897],[134.194,-12.029],[134.162,-12.1],[134.168,-12.115],[134.188,-12.105],[134.228,-12.036],[134.254,-12.034],[134.246,-11.985],[134.491,-12.077],[134.605,-12.049],[134.688,-11.963],[134.748,-11.949],[134.798,-12.048],[134.844,-12.062],[134.857,-12.131],[134.972,-12.158],[135.056,-12.264],[135.145,-12.237],[135.213,-12.295],[135.162,-12.225],[135.342,-12.246],[135.223,-12.189],[135.303,-12.163],[135.306,-12.124],[135.366,-12.085],[135.454,-12.114],[135.519,-12.06],[135.57,-12.101],[135.654,-12.04],[135.91,-11.952],[135.832,-11.984],[135.659,-12.15],[135.652,-12.202],[135.721,-12.281],[135.71,-12.313],[135.804,-12.199],[135.881,-12.151],[135.895,-12.185],[135.912,-12.15],[135.959,-12.152],[136.046,-12.063],[135.928,-12.222],[135.95,-12.279],[136.001,-12.268],[136.014,-12.233],[136.061,-12.241],[135.976,-12.369],[135.976,-12.395],[136.015,-12.397],[135.989,-12.462],[136.052,-12.479],[136.064,-12.43],[136.086,-12.457],[136.151,-12.435],[136.158,-12.471],[136.232,-12.466],[136.314,-12.382],[136.325,-12.307],[136.368,-12.279],[136.343,-12.265],[136.359,-12.23],[136.337,-12.196],[136.228,-12.213],[136.232,-12.183],[136.172,-12.192],[136.167,-12.163],[136.217,-12.152],[136.267,-12.065],[136.339,-12.059],[136.415,-11.959],[136.561,-11.918],[136.563,-11.877],[136.58,-11.916],[136.449,-11.987],[136.489,-12.04],[136.531,-11.991],[136.648,-12.27],[136.742,-12.272],[136.752,-12.214],[136.723,-12.23],[136.729,-12.211],[136.681,-12.186],[136.782,-12.159],[136.818,-12.212],[136.905,-12.246],[136.939,-12.324],[136.921,-12.344],[136.979,-12.345],[136.9,-12.392],[136.773,-12.556],[136.794,-12.45],[136.735,-12.479],[136.721,-12.458],[136.748,-12.534],[136.731,-12.563],[136.72,-12.554],[136.694,-12.567],[136.692,-12.588],[136.669,-12.591],[136.68,-12.604],[136.747,-12.552],[136.762,-12.577],[136.691,-12.632],[136.694,-12.711],[136.617,-12.69],[136.622,-12.839],[136.55,-12.74],[136.525,-12.758],[136.543,-12.807],[136.464,-12.772],[136.479,-12.842],[136.552,-12.874],[136.546,-12.916],[136.638,-12.951],[136.668,-13.004],[136.629,-13.017],[136.618,-12.968],[136.584,-13.018],[136.559,-12.965],[136.532,-12.992],[136.455,-12.978],[136.567,-13.059],[136.531,-13.154],[136.499,-13.14],[136.479,-13.17],[136.468,-13.248],[136.44,-13.217],[136.331,-13.325],[136.328,-13.25],[136.388,-13.227],[136.356,-13.147],[136.371,-13.07],[136.333,-13.034],[136.291,-13.108],[136.321,-13.12],[136.316,-13.16],[136.256,-13.155],[136.253,-13.121],[136.218,-13.138],[136.245,-13.212],[136.162,-13.242],[136.182,-13.281],[136.134,-13.207],[136.145,-13.121],[136.099,-13.159],[136.084,-13.233],[136.053,-13.234],[136.047,-13.31],[136.012,-13.215],[135.979,-13.223],[135.964,-13.295],[135.948,-13.253],[135.919,-13.268],[135.88,-13.363],[135.921,-13.378],[135.926,-13.418],[135.973,-13.402],[135.931,-13.467],[135.894,-13.425],[135.86,-13.44],[135.869,-13.562],[135.835,-13.591],[135.881,-13.669],[135.922,-13.676],[135.879,-13.712],[135.956,-13.743],[136.034,-13.682],[136.026,-13.652],[136.083,-13.655],[136.013,-13.763],[135.989,-13.896],[135.91,-13.99],[135.879,-14.167],[135.904,-14.191],[135.794,-14.226],[135.736,-14.282],[135.703,-14.271],[135.73,-14.297],[135.67,-14.424],[135.62,-14.423],[135.537,-14.561],[135.518,-14.625],[135.541,-14.653],[135.465,-14.676],[135.416,-14.735],[135.382,-14.726],[135.411,-14.873],[135.479,-14.976],[135.58,-15.045],[135.657,-15.053],[135.982,-15.287],[136.24,-15.416],[136.317,-15.626],[136.326,-15.602],[136.412,-15.626],[136.555,-15.75],[136.644,-15.672],[136.724,-15.696],[136.683,-15.778],[136.643,-15.769],[136.714,-15.857],[136.706,-15.931],[136.771,-15.889],[136.761,-15.916],[136.823,-15.899],[136.953,-15.938],[136.913,-15.9],[136.978,-15.851],[137.084,-15.944],[137.254,-16.012],[137.373,-16.133],[137.357,-16.116],[137.73,-16.232],[137.862,-16.423],[138.001,-16.545],[137.999,-25.997],[129.001,-25.999],[129.001,-14.879],[129.101,-14.915],[129.108,-14.989],[129.131,-14.949],[129.189,-14.987],[129.17,-15.052],[129.201,-15.123],[129.158,-15.198],[129.2,-15.147],[129.231,-15.176],[129.236,-15.068],[129.256,-15.034],[129.256,-15.062],[129.302,-15.037],[129.233,-15.008],[129.228,-14.839],[129.482,-14.941],[129.604,-15.108],[129.564,-15.18],[129.626,-15.138],[129.685,-15.143],[129.64,-15.071],[129.663,-15.028],[129.635,-15.033],[129.623,-14.953],[129.593,-14.967],[129.5,-14.79],[129.592,-14.891],[129.618,-14.876],[129.578,-14.798],[129.632,-14.844],[129.803,-14.858],[129.881,-14.82],[129.864,-14.802],[129.903,-14.773],[129.769,-14.828],[129.749,-14.81],[129.81,-14.76],[129.734,-14.794],[129.672,-14.763],[129.584,-14.616],[129.692,-14.613],[129.772,-14.539],[129.669,-14.58],[129.526,-14.552],[129.488,-14.503],[129.523,-14.466],[129.49,-14.46],[129.483,-14.501],[129.482,-14.45],[129.454,-14.446],[129.474,-14.491],[129.453,-14.505],[129.398,-14.416],[129.357,-14.424],[129.367,-14.338],[129.419,-14.291],[129.409,-14.236],[129.512,-14.127],[129.479,-14.048],[129.516,-14.075],[129.536,-14.058],[129.528,-14.13],[129.557,-14.142],[129.567,-14.084],[129.609,-14.07],[129.598,-14.011],[129.641,-14.047],[129.746,-13.975],[129.716,-13.879],[129.795,-13.79],[129.79,-13.667],[129.835,-13.561],[129.817,-13.502],[129.885,-13.503],[129.869,-13.48],[129.897,-13.44],[129.91,-13.514],[130.008,-13.533],[130.142,-13.457],[130.235,-13.34],[130.278,-13.335],[130.284,-13.306],[130.164,-13.178],[130.116,-13.164],[130.141,-12.933],[130.194,-12.911],[130.247,-12.948],[130.338,-12.89],[130.352,-12.67],[130.404,-12.701],[130.394,-12.662],[130.461,-12.639],[130.514,-12.668],[130.518,-12.731]],[[136.494,-13.137],[136.495,-13.131],[136.49,-13.135],[136.494,-13.137]],[[136.92,-12.345],[136.879,-12.366],[136.873,-12.381],[136.911,-12.368],[136.92,-12.345]],[[136.489,-12.056],[136.482,-12.05],[136.465,-12.051],[136.489,-12.056]],[[134.46,-12.071],[134.448,-12.075],[134.455,-12.078],[134.46,-12.071]],[[130.625,-12.77],[130.624,-12.775],[130.635,-12.774],[130.625,-12.77]],[[131.018,-12.363],[131.019,-12.372],[131.019,-12.362],[131.018,-12.363]]],[[[137.106,-15.773],[137.074,-15.846],[136.993,-15.792],[136.978,-15.712],[136.93,-15.726],[136.936,-15.66],[136.961,-15.64],[136.984,-15.674],[136.994,-15.665],[136.991,-15.584],[137.034,-15.635],[137.067,-15.629],[137.073,-15.746],[137.106,-15.773]]],[[[136.964,-14.165],[136.934,-14.204],[136.965,-14.283],[136.936,-14.282],[136.95,-14.304],[136.91,-14.285],[136.904,-14.311],[136.755,-14.258],[136.65,-14.296],[136.437,-14.196],[136.325,-14.246],[136.324,-14.213],[136.443,-14.123],[136.409,-13.831],[136.496,-13.841],[136.532,-13.785],[136.566,-13.83],[136.574,-13.799],[136.638,-13.784],[136.578,-13.687],[136.636,-13.689],[136.632,-13.721],[136.676,-13.702],[136.694,-13.652],[136.729,-13.652],[136.72,-13.718],[136.681,-13.739],[136.697,-13.775],[136.735,-13.771],[136.725,-13.842],[136.837,-13.843],[136.837,-13.802],[136.797,-13.834],[136.841,-13.745],[136.905,-13.764],[136.924,-13.807],[136.858,-13.913],[136.813,-13.904],[136.779,-13.934],[136.762,-14.001],[136.808,-14.036],[136.76,-14.046],[136.752,-14.087],[136.721,-14.07],[136.707,-14.169],[136.785,-14.193],[136.777,-14.145],[136.8,-14.147],[136.866,-14.211],[136.915,-14.171],[136.911,-14.138],[136.964,-14.165]]],[[[136.766,-11.029],[136.72,-11.194],[136.667,-11.225],[136.684,-11.249],[136.625,-11.284],[136.627,-11.329],[136.538,-11.44],[136.484,-11.457],[136.498,-11.392],[136.583,-11.325],[136.623,-11.21],[136.707,-11.168],[136.694,-11.12],[136.722,-11.11],[136.701,-11.092],[136.738,-11.076],[136.713,-11.055],[136.766,-11.029]]],[[[136.617,-15.555],[136.59,-15.645],[136.495,-15.644],[136.525,-15.531],[136.579,-15.511],[136.617,-15.555]]],[[[136.302,-13.734],[136.254,-13.748],[136.284,-13.787],[136.26,-13.784],[136.248,-13.85],[136.199,-13.854],[136.186,-13.768],[136.145,-13.785],[136.168,-13.835],[136.106,-13.816],[136.113,-13.731],[136.174,-13.748],[136.2,-13.665],[136.254,-13.674],[136.302,-13.734]]],[[[135.735,-11.937],[135.9,-11.808],[135.866,-11.783],[135.876,-11.756],[135.928,-11.775],[135.938,-11.803],[135.798,-11.965],[135.565,-12.07],[135.594,-11.951],[135.632,-11.975],[135.667,-11.936],[135.735,-11.937]]],[[[132.564,-10.979],[132.614,-11.13],[132.58,-11.16],[132.631,-11.186],[132.603,-11.205],[132.619,-11.285],[132.588,-11.356],[132.47,-11.157],[132.51,-11.138],[132.513,-11.092],[132.462,-11.033],[132.545,-11.052],[132.564,-10.979]]],[[[130.402,-11.363],[130.407,-11.302],[130.363,-11.251],[130.373,-11.171],[130.402,-11.166],[130.496,-11.279],[130.595,-11.289],[130.604,-11.321],[130.555,-11.361],[130.568,-11.398],[130.619,-11.388],[130.657,-11.336],[130.706,-11.514],[130.723,-11.47],[130.824,-11.538],[130.734,-11.428],[130.697,-11.427],[130.705,-11.385],[130.848,-11.354],[130.897,-11.309],[131.032,-11.367],[131.041,-11.318],[131.092,-11.304],[131.089,-11.332],[131.113,-11.259],[131.148,-11.25],[131.209,-11.344],[131.228,-11.305],[131.191,-11.303],[131.204,-11.236],[131.277,-11.19],[131.315,-11.228],[131.305,-11.275],[131.353,-11.25],[131.381,-11.298],[131.401,-11.258],[131.436,-11.266],[131.481,-11.399],[131.456,-11.42],[131.5,-11.384],[131.543,-11.452],[131.465,-11.498],[131.47,-11.608],[131.369,-11.581],[131.28,-11.74],[131.082,-11.836],[130.949,-11.94],[130.862,-11.855],[130.686,-11.796],[130.68,-11.762],[130.493,-11.655],[130.494,-11.564],[130.432,-11.503],[130.402,-11.363]],[[131.369,-11.581],[131.356,-11.578],[131.366,-11.586],[131.369,-11.581]],[[130.403,-11.361],[130.408,-11.36],[130.404,-11.355],[130.403,-11.361]]],[[[130.222,-11.704],[130.207,-11.725],[130.237,-11.747],[130.23,-11.704],[130.207,-11.694],[130.223,-11.67],[130.306,-11.733],[130.293,-11.692],[130.246,-11.679],[130.258,-11.675],[130.266,-11.662],[130.191,-11.643],[130.201,-11.586],[130.175,-11.558],[130.225,-11.507],[130.261,-11.571],[130.283,-11.54],[130.235,-11.521],[130.231,-11.485],[130.209,-11.512],[130.148,-11.482],[130.245,-11.367],[130.248,-11.398],[130.252,-11.346],[130.286,-11.361],[130.337,-11.319],[130.322,-11.333],[130.4,-11.425],[130.376,-11.507],[130.464,-11.575],[130.468,-11.666],[130.641,-11.757],[130.604,-11.827],[130.503,-11.83],[130.312,-11.771],[130.131,-11.825],[130.024,-11.797],[130.033,-11.756],[130.081,-11.769],[130.077,-11.669],[130.157,-11.705],[130.202,-11.649],[130.204,-11.694],[130.222,-11.704]],[[130.212,-11.709],[130.211,-11.705],[130.205,-11.707],[130.212,-11.709]]]]}},{"type":"Feature","properties":{"STATE_NAME":"Australian Capital Territory"},"geometry":{"type":"Polygon","coordinates":[[[149.399,-35.319],[149.352,-35.351],[149.208,-35.345],[149.147,-35.415],[149.143,-35.593],[149.078,-35.586],[149.109,-35.697],[149.096,-35.846],[149.049,-35.92],[148.959,-35.895],[148.887,-35.81],[148.887,-35.719],[148.856,-35.761],[148.767,-35.647],[148.789,-35.588],[148.763,-35.496],[148.808,-35.31],[149.121,-35.125],[149.189,-35.166],[149.205,-35.23],[149.239,-35.222],[149.272,-35.274],[149.399,-35.319]],[[149.153,-35.305],[149.114,-35.28],[149.101,-35.294],[149.099,-35.286],[149.088,-35.285],[149.071,-35.299],[149.153,-35.305]]]}}]}